{
"type": "FeatureCollection",
"name": "dana_track",
"crs": { "type": "name", "properties": { "name": "urn:ogc:def:crs:OGC:1.3:CRS84" } },
"features": [
{ "type": "Feature", "properties": { "time": "2024-10-21T06:00:00", "lat": 15.3, "lon": 92.1, "wind_kts": 20, "pressure_mb": 1004.0, "category": "Depression (<28 kts)" }, "geometry": { "type": "Point", "coordinates": [ 92.1, 15.3 ] } },
{ "type": "Feature", "properties": { "time": "2024-10-21T09:00:00", "lat": 15.2, "lon": 92.1, "wind_kts": 20, "pressure_mb": 1003.0, "category": "Depression (<28 kts)" }, "geometry": { "type": "Point", "coordinates": [ 92.1, 15.2 ] } },
{ "type": "Feature", "properties": { "time": "2024-10-21T12:00:00", "lat": 15.2, "lon": 92.1, "wind_kts": 20, "pressure_mb": 1002.0, "category": "Depression (<28 kts)" }, "geometry": { "type": "Point", "coordinates": [ 92.1, 15.2 ] } },
{ "type": "Feature", "properties": { "time": "2024-10-21T15:00:00", "lat": 15.2, "lon": 92.1, "wind_kts": 20, "pressure_mb": 1001.0, "category": "Depression (<28 kts)" }, "geometry": { "type": "Point", "coordinates": [ 92.1, 15.2 ] } },
{ "type": "Feature", "properties": { "time": "2024-10-21T18:00:00", "lat": 15.2, "lon": 92.0, "wind_kts": 20, "pressure_mb": 999.0, "category": "Depression (<28 kts)" }, "geometry": { "type": "Point", "coordinates": [ 92.0, 15.2 ] } },
{ "type": "Feature", "properties": { "time": "2024-10-21T21:00:00", "lat": 15.1, "lon": 92.0, "wind_kts": 20, "pressure_mb": 999.0, "category": "Depression (<28 kts)" }, "geometry": { "type": "Point", "coordinates": [ 92.0, 15.1 ] } },
{ "type": "Feature", "properties": { "time": "2024-10-22T00:00:00", "lat": 15.2, "lon": 91.9, "wind_kts": 20, "pressure_mb": 998.0, "category": "Depression (<28 kts)" }, "geometry": { "type": "Point", "coordinates": [ 91.9, 15.2 ] } },
{ "type": "Feature", "properties": { "time": "2024-10-22T03:00:00", "lat": 15.2, "lon": 91.8, "wind_kts": 23, "pressure_mb": 998.0, "category": "Depression (<28 kts)" }, "geometry": { "type": "Point", "coordinates": [ 91.8, 15.2 ] } },
{ "type": "Feature", "properties": { "time": "2024-10-22T06:00:00", "lat": 15.3, "lon": 91.6, "wind_kts": 25, "pressure_mb": 997.0, "category": "Depression (<28 kts)" }, "geometry": { "type": "Point", "coordinates": [ 91.6, 15.3 ] } },
{ "type": "Feature", "properties": { "time": "2024-10-22T09:00:00", "lat": 15.3, "lon": 91.5, "wind_kts": 25, "pressure_mb": 997.0, "category": "Depression (<28 kts)" }, "geometry": { "type": "Point", "coordinates": [ 91.5, 15.3 ] } },
{ "type": "Feature", "properties": { "time": "2024-10-22T12:00:00", "lat": 15.4, "lon": 91.4, "wind_kts": 30, "pressure_mb": 996.0, "category": "Deep Depression (28-33 kts)" }, "geometry": { "type": "Point", "coordinates": [ 91.4, 15.4 ] } },
{ "type": "Feature", "properties": { "time": "2024-10-22T15:00:00", "lat": 15.5, "lon": 91.1, "wind_kts": 28, "pressure_mb": 996.0, "category": "Deep Depression (28-33 kts)" }, "geometry": { "type": "Point", "coordinates": [ 91.1, 15.5 ] } },
{ "type": "Feature", "properties": { "time": "2024-10-22T18:00:00", "lat": 15.6, "lon": 90.7, "wind_kts": 30, "pressure_mb": 995.0, "category": "Deep Depression (28-33 kts)" }, "geometry": { "type": "Point", "coordinates": [ 90.7, 15.6 ] } },
{ "type": "Feature", "properties": { "time": "2024-10-22T21:00:00", "lat": 15.8, "lon": 90.3, "wind_kts": 33, "pressure_mb": 995.0, "category": "Deep Depression (28-33 kts)" }, "geometry": { "type": "Point", "coordinates": [ 90.3, 15.8 ] } },
{ "type": "Feature", "properties": { "time": "2024-10-23T00:00:00", "lat": 16.1, "lon": 89.9, "wind_kts": 35, "pressure_mb": 994.0, "category": "Cyclonic Storm (34-47 kts)" }, "geometry": { "type": "Point", "coordinates": [ 89.9, 16.1 ] } },
{ "type": "Feature", "properties": { "time": "2024-10-23T03:00:00", "lat": 16.4, "lon": 89.6, "wind_kts": 38, "pressure_mb": 994.0, "category": "Cyclonic Storm (34-47 kts)" }, "geometry": { "type": "Point", "coordinates": [ 89.6, 16.4 ] } },
{ "type": "Feature", "properties": { "time": "2024-10-23T06:00:00", "lat": 16.7, "lon": 89.3, "wind_kts": 40, "pressure_mb": 993.0, "category": "Cyclonic Storm (34-47 kts)" }, "geometry": { "type": "Point", "coordinates": [ 89.3, 16.7 ] } },
{ "type": "Feature", "properties": { "time": "2024-10-23T09:00:00", "lat": 16.9, "lon": 89.1, "wind_kts": 45, "pressure_mb": 992.0, "category": "Cyclonic Storm (34-47 kts)" }, "geometry": { "type": "Point", "coordinates": [ 89.1, 16.9 ] } },
{ "type": "Feature", "properties": { "time": "2024-10-23T12:00:00", "lat": 17.3, "lon": 89.0, "wind_kts": 50, "pressure_mb": 991.0, "category": "Severe Cyclonic Storm (48-63 kts)" }, "geometry": { "type": "Point", "coordinates": [ 89.0, 17.3 ] } },
{ "type": "Feature", "properties": { "time": "2024-10-23T15:00:00", "lat": 17.6, "lon": 88.8, "wind_kts": 53, "pressure_mb": 991.0, "category": "Severe Cyclonic Storm (48-63 kts)" }, "geometry": { "type": "Point", "coordinates": [ 88.8, 17.6 ] } },
{ "type": "Feature", "properties": { "time": "2024-10-23T18:00:00", "lat": 18.0, "lon": 88.7, "wind_kts": 55, "pressure_mb": 990.0, "category": "Severe Cyclonic Storm (48-63 kts)" }, "geometry": { "type": "Point", "coordinates": [ 88.7, 18.0 ] } },
{ "type": "Feature", "properties": { "time": "2024-10-23T21:00:00", "lat": 18.3, "lon": 88.4, "wind_kts": 58, "pressure_mb": 989.0, "category": "Severe Cyclonic Storm (48-63 kts)" }, "geometry": { "type": "Point", "coordinates": [ 88.4, 18.3 ] } },
{ "type": "Feature", "properties": { "time": "2024-10-24T00:00:00", "lat": 18.7, "lon": 88.2, "wind_kts": 60, "pressure_mb": 988.0, "category": "Severe Cyclonic Storm (48-63 kts)" }, "geometry": { "type": "Point", "coordinates": [ 88.2, 18.7 ] } },
{ "type": "Feature", "properties": { "time": "2024-10-24T03:00:00", "lat": 19.0, "lon": 88.0, "wind_kts": 63, "pressure_mb": 987.0, "category": "Severe Cyclonic Storm (48-63 kts)" }, "geometry": { "type": "Point", "coordinates": [ 88.0, 19.0 ] } },
{ "type": "Feature", "properties": { "time": "2024-10-24T06:00:00", "lat": 19.3, "lon": 87.8, "wind_kts": 65, "pressure_mb": 986.0, "category": "Very Severe Cyclonic Storm (64-89 kts)" }, "geometry": { "type": "Point", "coordinates": [ 87.8, 19.3 ] } },
{ "type": "Feature", "properties": { "time": "2024-10-24T09:00:00", "lat": 19.5, "lon": 87.6, "wind_kts": 65, "pressure_mb": 986.0, "category": "Very Severe Cyclonic Storm (64-89 kts)" }, "geometry": { "type": "Point", "coordinates": [ 87.6, 19.5 ] } },
{ "type": "Feature", "properties": { "time": "2024-10-24T12:00:00", "lat": 19.8, "lon": 87.5, "wind_kts": 65, "pressure_mb": 985.0, "category": "Very Severe Cyclonic Storm (64-89 kts)" }, "geometry": { "type": "Point", "coordinates": [ 87.5, 19.8 ] } },
{ "type": "Feature", "properties": { "time": "2024-10-24T15:00:00", "lat": 20.1, "lon": 87.3, "wind_kts": 63, "pressure_mb": 986.0, "category": "Severe Cyclonic Storm (48-63 kts)" }, "geometry": { "type": "Point", "coordinates": [ 87.3, 20.1 ] } },
{ "type": "Feature", "properties": { "time": "2024-10-24T18:00:00", "lat": 20.5, "lon": 87.1, "wind_kts": 60, "pressure_mb": 988.0, "category": "Severe Cyclonic Storm (48-63 kts)" }, "geometry": { "type": "Point", "coordinates": [ 87.1, 20.5 ] } },
{ "type": "Feature", "properties": { "time": "2024-10-24T21:00:00", "lat": 20.7, "lon": 87.0, "wind_kts": 58, "pressure_mb": 988.0, "category": "Severe Cyclonic Storm (48-63 kts)" }, "geometry": { "type": "Point", "coordinates": [ 87.0, 20.7 ] } },
{ "type": "Feature", "properties": { "time": "2024-10-25T00:00:00", "lat": 20.9, "lon": 86.9, "wind_kts": 55, "pressure_mb": 990.0, "category": "Severe Cyclonic Storm (48-63 kts)" }, "geometry": { "type": "Point", "coordinates": [ 86.9, 20.9 ] } },
{ "type": "Feature", "properties": { "time": "2024-10-25T03:00:00", "lat": 21.1, "lon": 86.8, "wind_kts": 53, "pressure_mb": 992.0, "category": "Severe Cyclonic Storm (48-63 kts)" }, "geometry": { "type": "Point", "coordinates": [ 86.8, 21.1 ] } },
{ "type": "Feature", "properties": { "time": "2024-10-25T06:00:00", "lat": 21.2, "lon": 86.7, "wind_kts": 50, "pressure_mb": 993.0, "category": "Severe Cyclonic Storm (48-63 kts)" }, "geometry": { "type": "Point", "coordinates": [ 86.7, 21.2 ] } },
{ "type": "Feature", "properties": { "time": "2024-10-25T09:00:00", "lat": 21.3, "lon": 86.6, "wind_kts": 45, "pressure_mb": 995.0, "category": "Cyclonic Storm (34-47 kts)" }, "geometry": { "type": "Point", "coordinates": [ 86.6, 21.3 ] } },
{ "type": "Feature", "properties": { "time": "2024-10-25T12:00:00", "lat": 21.3, "lon": 86.5, "wind_kts": 40, "pressure_mb": 996.0, "category": "Cyclonic Storm (34-47 kts)" }, "geometry": { "type": "Point", "coordinates": [ 86.5, 21.3 ] } },
{ "type": "Feature", "properties": { "time": "2024-10-25T15:00:00", "lat": 21.3, "lon": 86.4, "wind_kts": 35, "pressure_mb": 997.0, "category": "Cyclonic Storm (34-47 kts)" }, "geometry": { "type": "Point", "coordinates": [ 86.4, 21.3 ] } },
{ "type": "Feature", "properties": { "time": "2024-10-25T18:00:00", "lat": 21.3, "lon": 86.4, "wind_kts": 30, "pressure_mb": 997.0, "category": "Deep Depression (28-33 kts)" }, "geometry": { "type": "Point", "coordinates": [ 86.4, 21.3 ] } },
{ "type": "Feature", "properties": { "time": "2024-10-25T21:00:00", "lat": 21.2, "lon": 86.5, "wind_kts": 25, "pressure_mb": 999.0, "category": "Depression (<28 kts)" }, "geometry": { "type": "Point", "coordinates": [ 86.5, 21.2 ] } },
{ "type": "Feature", "properties": { "time": "2024-10-26T00:00:00", "lat": 21.2, "lon": 86.4, "wind_kts": 20, "pressure_mb": 1000.0, "category": "Depression (<28 kts)" }, "geometry": { "type": "Point", "coordinates": [ 86.4, 21.2 ] } }
]
}
