{
"type": "FeatureCollection",
"name": "rainfall_hazard",
"crs": { "type": "name", "properties": { "name": "urn:ogc:def:crs:OGC:1.3:CRS84" } },
"features": [
{ "type": "Feature", "properties": { "tier_id": "extreme_rain", "tier_name": "Torrential Rain (>200 mm)", "threat_level": "CRITICAL", "min_rainfall_mm": 200.0, "max_rainfall_mm": 500.0, "area_sq_km": 29265.3, "fill_color": "#4338ca", "stroke_color": "#312e81", "impact_directive": "Catastrophic riverine flooding, urban drainage paralysis, widespread water contamination." }, "geometry": { "type": "Polygon", "coordinates": [ [ [ 88.3, 21.3 ], [ 88.7, 21.2 ], [ 89.6, 21.4 ], [ 90.1, 22.0 ], [ 89.9, 22.9 ], [ 89.3, 23.1 ], [ 88.6, 22.7 ], [ 88.2, 21.9 ], [ 88.3, 21.3 ] ] ] } },
{ "type": "Feature", "properties": { "tier_id": "heavy_rain", "tier_name": "Heavy Rain (100 - 200 mm)", "threat_level": "HIGH", "min_rainfall_mm": 100.0, "max_rainfall_mm": 200.0, "area_sq_km": 91083.4, "fill_color": "#0284c7", "stroke_color": "#0369a1", "impact_directive": "Extensive waterlogging, drainage overflow, disruption of vehicular traffic and rail lines." }, "geometry": { "type": "Polygon", "coordinates": [ [ [ 87.6, 20.9 ], [ 88.5, 20.7 ], [ 90.1, 21.0 ], [ 90.8, 21.9 ], [ 90.6, 23.6 ], [ 89.8, 24.0 ], [ 88.4, 23.5 ], [ 87.7, 22.4 ], [ 87.6, 20.9 ] ] ] } },
{ "type": "Feature", "properties": { "tier_id": "moderate_rain", "tier_name": "Moderate Rain (50 - 100 mm)", "threat_level": "MODERATE", "min_rainfall_mm": 50.0, "max_rainfall_mm": 100.0, "area_sq_km": 208583.2, "fill_color": "#67e8f9", "stroke_color": "#06b6d4", "impact_directive": "Saturated agricultural soils, localized surface ponding." }, "geometry": { "type": "Polygon", "coordinates": [ [ [ 86.8, 20.3 ], [ 88.4, 20.1 ], [ 90.8, 20.5 ], [ 91.6, 21.7 ], [ 91.4, 24.4 ], [ 90.2, 24.9 ], [ 88.1, 24.3 ], [ 87.0, 23.0 ], [ 86.8, 20.3 ] ] ] } }
]
}
