{
"type": "FeatureCollection",
"name": "remal_wind_swaths",
"crs": { "type": "name", "properties": { "name": "urn:ogc:def:crs:OGC:1.3:CRS84" } },
"features": [
{ "type": "Feature", "properties": { "storm_name": "REMAL", "zone_id": "core", "zone_name": "Core Destructive Swath (>48 kts)", "hazard_level": "CRITICAL", "wind_threshold_kts": 48.0, "wind_threshold_kmh": 88.9, "base_radius_km": 60.0, "max_scaled_radius_km": 67.1, "area_sqkm": 58079.7, "fill_color": "#ef4444", "stroke_color": "#b91c1c", "fill_opacity": 0.45, "stroke_opacity": 0.9, "weight": 2.5, "description": "Destructive hurricane/severe storm-force winds. Extreme structural threat to roofing, unreinforced masonry, power distribution pylons, and widespread tree falls.", "evacuation_directive": "Immediate mandatory evacuation to cyclone shelters; complete shutdown of ports, airports, and transport." }, "geometry": { "type": "Polygon", "coordinates": [ [ [ 88.35354414178704, 21.528150300376048 ], [ 88.264477003989839, 21.877399427769983 ], [ 88.255644601728946, 21.936289301867646 ], [ 88.258488609373615, 22.099530119567056 ], [ 88.276566402009493, 22.233323668820418 ], [ 88.310155853913969, 22.38879041193762 ], [ 88.421284202458395, 22.734323816542098 ], [ 88.457707696994689, 22.827661157601799 ], [ 88.573490867810591, 23.036343430460722 ], [ 88.638489882293953, 23.124238454286022 ], [ 88.720864332143407, 23.198667992400058 ], [ 88.817444391545337, 23.256747459739213 ], [ 88.924493994417062, 23.296223789215464 ], [ 89.037858090519791, 23.315565456191187 ], [ 89.153128760477415, 23.314023745706706 ], [ 89.265822769047915, 23.291662469677124 ], [ 89.371562376588386, 23.2493548077694 ], [ 89.466251029972867, 23.188747505159963 ], [ 89.546235941485122, 23.112194192370026 ], [ 89.579729893527428, 23.068843850361343 ], [ 89.632125088685726, 22.974092701539785 ], [ 89.650530656159205, 22.923608639667595 ], [ 89.670901464727919, 22.81885651639849 ], [ 89.668830695125422, 22.712433910207707 ], [ 89.659387016399222, 22.65987458172842 ], [ 89.644449163912668, 22.60842485619165 ], [ 89.575513077401496, 22.448887914280721 ], [ 89.528674857935854, 22.189161607097681 ], [ 89.539732338911179, 22.106436941078666 ], [ 89.637204721447972, 21.702332248808069 ], [ 89.647260422459368, 21.590928156494211 ], [ 89.721006351779806, 21.367393059802644 ], [ 89.743560375989787, 21.250589843992831 ], [ 89.716433278217281, 20.604187118714844 ], [ 89.684871375965713, 20.270107146365589 ], [ 89.68380676301301, 20.00034316323238 ], [ 89.763755620168396, 19.731156682795778 ], [ 89.781509040649439, 19.579462143966254 ], [ 89.771019531611486, 19.48102043543404 ], [ 89.747290197760648, 19.376618977603624 ], [ 89.727475443307441, 19.326569856354396 ], [ 89.672915624205288, 19.233169618621194 ], [ 89.600287656005705, 19.151637115254299 ], [ 89.558047038090479, 19.116315385008779 ], [ 89.512383969413506, 19.085085788601905 ], [ 89.412568152278567, 19.036055647618703 ], [ 89.304648034762295, 19.006418128109122 ], [ 89.192733569136109, 18.99730590377753 ], [ 89.08108434359157, 19.009070153617781 ], [ 88.973951835925064, 19.041266860322548 ], [ 88.875421672743187, 19.092672715550929 ], [ 88.789261202770675, 19.161330173431264 ], [ 88.718777611758938, 19.24462016137295 ], [ 88.666691598017493, 19.339359964672916 ], [ 88.626523594636652, 19.487860038224593 ], [ 88.542285496223897, 19.735041700237272 ], [ 88.520951648256855, 19.841594897679702 ], [ 88.514879664373652, 20.272504050388285 ], [ 88.485705927596726, 20.562228002773988 ], [ 88.4593521999346, 21.094316997412555 ], [ 88.3639537724234, 21.390835365898933 ], [ 88.35354414178704, 21.528150300376048 ] ] ] } },
{ "type": "Feature", "properties": { "storm_name": "REMAL", "zone_id": "moderate", "zone_name": "Moderate Gale Swath (34-47 kts)", "hazard_level": "HIGH", "wind_threshold_kts": 34.0, "wind_threshold_kmh": 63.0, "base_radius_km": 120.0, "max_scaled_radius_km": 159.4, "area_sqkm": 219261.3, "fill_color": "#f59e0b", "stroke_color": "#b45309", "fill_opacity": 0.35, "stroke_opacity": 0.8, "weight": 2.0, "description": "Gale-force sustained winds. Risk of damage to thatched/tin homes, overhead wires, communication towers, and minor boat capsizing.", "evacuation_directive": "Relocate vulnerable coastal populations; reinforce temporary dwellings and clear storm drainage canals." }, "geometry": { "type": "Polygon", "coordinates": [ [ [ 87.591847173727899, 20.903630217419899 ], [ 87.526058073582433, 21.095705177972967 ], [ 87.489912725703888, 21.232922980740536 ], [ 87.465954039823885, 21.419094429378536 ], [ 87.387585215084016, 21.719061328690557 ], [ 87.36574566590464, 21.858917913954468 ], [ 87.358670144758349, 22.000097594258154 ], [ 87.36647034170484, 22.141241978056836 ], [ 87.389115220131629, 22.280989057903803 ], [ 87.433959077230398, 22.459868625366767 ], [ 87.490670148818282, 22.624774020301338 ], [ 87.681444880742035, 23.083065559731075 ], [ 87.760330393297906, 23.237842995246844 ], [ 87.777956939111249, 23.34373302407657 ], [ 87.810923929445465, 23.462425499624288 ], [ 87.856414404177812, 23.577548903041901 ], [ 87.914017857590594, 23.687983007311814 ], [ 87.983202075151667, 23.792650422323458 ], [ 88.063317238222183, 23.890527481678877 ], [ 88.185678927665649, 24.009942911822225 ], [ 88.284497635166943, 24.090750475159567 ], [ 88.391584397876201, 24.162196271259528 ], [ 88.573929700724406, 24.267315714484848 ], [ 88.938807894560895, 24.515098974130002 ], [ 89.041069113881306, 24.56934619633174 ], [ 89.192071539972488, 24.632746372851646 ], [ 89.48825811209187, 24.728826797634213 ], [ 89.601903293862392, 24.752781842170727 ], [ 89.717593656018778, 24.766357434365695 ], [ 89.834185585210903, 24.769421731260795 ], [ 89.950526354635059, 24.761946992518844 ], [ 90.065466483264444, 24.744009784218129 ], [ 90.177872028945686, 24.715790051375905 ], [ 90.286636640423652, 24.677569076718026 ], [ 90.390693200375097, 24.629726360035061 ], [ 90.489024902929202, 24.572735468130329 ], [ 90.580675624339378, 24.507158919402229 ], [ 90.664759463681335, 24.433642179138801 ], [ 90.740469350801007, 24.352906851379661 ], [ 90.807084640278191, 24.265743160588407 ], [ 90.863977631974194, 24.173001821374989 ], [ 90.910618979925104, 24.075585397226202 ], [ 90.946581971178063, 23.974439249861732 ], [ 90.971545674052521, 23.870542179725085 ], [ 90.98529697082553, 23.764896855591079 ], [ 90.987731502758933, 23.65852012768968 ], [ 90.978853565655612, 23.55243331447268 ], [ 90.958775001857362, 23.447652548515759 ], [ 90.927713140016223, 23.345179262333847 ], [ 90.885987837419108, 23.245990890307304 ], [ 90.834017681515462, 23.151031858612608 ], [ 90.772315408007273, 23.061204931088696 ], [ 90.701482592819318, 22.977362975346118 ], [ 90.622203674842609, 22.900301210073675 ], [ 90.485023479386726, 22.797910933899729 ], [ 90.475320309092098, 22.666969259869006 ], [ 90.445061388232006, 22.499153126300328 ], [ 90.39742190109888, 22.347094993082994 ], [ 90.506488132563632, 21.892785389893078 ], [ 90.529840942395097, 21.740078283124159 ], [ 90.577800885953977, 21.593116486984581 ], [ 90.611061952008086, 21.455490172714303 ], [ 90.629724094824766, 21.315477281657813 ], [ 90.633650727667728, 21.174425297732387 ], [ 90.622846503054092, 21.033687662804695 ], [ 90.554101844809281, 20.453875838597394 ], [ 90.490458535539815, 20.14888643782508 ], [ 90.490324748707749, 20.094757080328943 ], [ 90.524421717942715, 19.991180157035163 ], [ 90.554729538685081, 19.865575797000112 ], [ 90.577530071831745, 19.693723070877294 ], [ 90.581335023500486, 19.56534523495564 ], [ 90.571868972765415, 19.43722904917237 ], [ 90.549253282818157, 19.310601405649162 ], [ 90.513733064332754, 19.186672395758354 ], [ 90.422674693365579, 18.952796067490588 ], [ 90.444963672883745, 18.860532475500161 ], [ 90.459228800276733, 18.75482664684252 ], [ 90.462549729825653, 18.648298340375735 ], [ 90.454915262286661, 18.541970748163049 ], [ 90.436418595131215, 18.436863276015238 ], [ 90.407255690885663, 18.3339819579855 ], [ 90.367722750307323, 18.234310055864963 ], [ 90.318212835224784, 18.138798918951302 ], [ 90.259211688041702, 18.048359176181251 ], [ 90.191292796565051, 17.963852329721295 ], [ 90.115111754266479, 17.88608281622226 ], [ 90.031399967560645, 17.815790599040238 ], [ 89.940957763361226, 17.753644351659688 ], [ 89.844646952148182, 17.700235289165288 ], [ 89.743382904075389, 17.656071700747543 ], [ 89.638126198216554, 17.621574231764665 ], [ 89.529873907794524, 17.597071958731121 ], [ 89.419650587019945, 17.582799294716285 ], [ 89.30849902782316, 17.578893756024296 ], [ 89.197470857133951, 17.585394613746246 ], [ 89.087617047299474, 17.602242445937602 ], [ 88.979978413618255, 17.629279597921382 ], [ 88.875576173730039, 17.66625154972601 ], [ 88.775402643715452, 17.712809181120765 ], [ 88.680412145246478, 17.768511916296138 ], [ 88.591512197058151, 17.832831722117092 ], [ 88.475141754191952, 17.934651072272501 ], [ 88.400028405698095, 18.015206590369854 ], [ 88.333462313132159, 18.102399445581216 ], [ 88.276091596515244, 18.195398201945711 ], [ 88.12711920173038, 18.496944121349923 ], [ 88.089556829374274, 18.599050532322867 ], [ 88.02396908519718, 18.832571199020837 ], [ 87.874753862347973, 19.218273826108465 ], [ 87.771618652708739, 19.518929949556671 ], [ 87.739119806884773, 19.644246973394928 ], [ 87.719704941508837, 19.771976316412122 ], [ 87.709819572500251, 19.945607433295969 ], [ 87.708741783051195, 20.152356376986159 ], [ 87.66119220397205, 20.354972259727354 ], [ 87.591847173727899, 20.903630217419899 ] ] ] } },
{ "type": "Feature", "properties": { "storm_name": "REMAL", "zone_id": "outer", "zone_name": "Outer Squall Swath (25-33 kts)", "hazard_level": "MODERATE", "wind_threshold_kts": 25.0, "wind_threshold_kmh": 46.3, "base_radius_km": 200.0, "max_scaled_radius_km": 283.9, "area_sqkm": 683815.4, "fill_color": "#3b82f6", "stroke_color": "#1d4ed8", "fill_opacity": 0.22, "stroke_opacity": 0.7, "weight": 1.5, "description": "Squally peripheral wind field with persistent gusting rainbands, high oceanic swell, and localized flash waterlogging.", "evacuation_directive": "Total ban on offshore fishing; secure harbor vessels and activate district emergency response teams." }, "geometry": { "type": "Polygon", "coordinates": [ [ [ 88.789530766538363, 13.415943945509786 ], [ 88.608471783542697, 13.408458528820873 ], [ 88.427511626736973, 13.41825311211646 ], [ 88.248356585564736, 13.445239250598402 ], [ 88.072697561644304, 13.489165386301554 ], [ 87.902194789492128, 13.549619059896013 ], [ 87.738462795783718, 13.626030645330012 ], [ 87.583055727450116, 13.717678566339526 ], [ 87.437453171573424, 13.82369593694591 ], [ 87.303046580936339, 13.943078553505044 ], [ 87.181126409075162, 14.074694154034439 ], [ 87.072870048713966, 14.217292851560673 ], [ 86.979330658423592, 14.369518641976518 ], [ 86.901426955026068, 14.5299218830211 ], [ 86.83993404421939, 14.696972638942041 ], [ 86.795475359419186, 14.86907478447012 ], [ 86.768515778873052, 15.044580761162976 ], [ 86.759355993325059, 15.221806878186021 ], [ 86.768128200191157, 15.399049047507276 ], [ 86.794793204347158, 15.574598839752102 ], [ 86.839139009004299, 15.746759741274023 ], [ 86.900780981383747, 15.913863485290834 ], [ 86.979163675607907, 16.074286320442386 ], [ 87.073564388111919, 16.226465069368544 ], [ 87.183098507878313, 16.368912818673653 ], [ 87.306726704212011, 16.50023407094471 ], [ 87.443263968359901, 16.619139180481081 ], [ 87.641417994003703, 16.767895801435525 ], [ 87.687858713734613, 16.829911053846111 ], [ 87.752369083615378, 16.959993490590392 ], [ 87.873985252381217, 17.152257675136507 ], [ 87.757565859792876, 17.254534785536165 ], [ 87.616216167918964, 17.405403994501121 ], [ 87.490719696042447, 17.568774471717077 ], [ 87.382304405863124, 17.74310087876577 ], [ 87.150787945561575, 18.213994455706551 ], [ 86.98685103507249, 18.479437356397892 ], [ 86.882085254378026, 18.690466597768449 ], [ 86.692505006265293, 19.209759860906384 ], [ 86.632134568972191, 19.436681194803178 ], [ 86.595358227642521, 19.668109761590273 ], [ 86.580371425736573, 19.912923923936258 ], [ 86.51917925364242, 20.141201444315492 ], [ 86.438694658947952, 20.602842593486837 ], [ 86.380736555280365, 20.768965157391928 ], [ 86.314603928567138, 21.012869944839522 ], [ 86.276727643636576, 21.245338398463076 ], [ 86.208560192502048, 21.498268596927762 ], [ 86.167677685015377, 21.747017168647165 ], [ 86.152978093409118, 21.998302558346179 ], [ 86.16473907792782, 22.249715852235081 ], [ 86.202988651182494, 22.498834410525468 ], [ 86.279247030343612, 22.783918370936711 ], [ 86.369057192597325, 23.019865958566104 ], [ 86.714203000413633, 23.698540948715518 ], [ 86.732393030818969, 23.76594976456413 ], [ 86.814270412885108, 23.977451894709372 ], [ 86.918607438629451, 24.180488543379166 ], [ 87.044484028526739, 24.37305917304267 ], [ 87.190752603493763, 24.553256327365045 ], [ 87.356045640222248, 24.719286057506011 ], [ 87.573423352816363, 24.894561978457126 ], [ 87.770623642562342, 25.026515450406261 ], [ 87.981453920335497, 25.139912329316168 ], [ 88.165497817716954, 25.218353909744941 ], [ 88.552860530498407, 25.428926540391995 ], [ 88.80090318900632, 25.530037925303819 ], [ 89.189810133194385, 25.648633521150543 ], [ 89.541113393442302, 25.832029627949826 ], [ 89.733118620826687, 25.909954043623298 ], [ 89.932835200258225, 25.970189170812716 ], [ 90.069407091512304, 25.999508452188724 ], [ 90.444851321360545, 26.073674448764312 ], [ 90.640383649109225, 26.094973804239295 ], [ 90.837278803318611, 26.098592012134475 ], [ 91.033549925168529, 26.084502086552565 ], [ 91.227219496713701, 26.052856331183133 ], [ 91.416342261807685, 26.003984156035283 ], [ 91.599027488874853, 25.938387796225836 ], [ 91.773460184333914, 25.856736031695419 ], [ 91.93792090668849, 25.759856044980822 ], [ 92.090803884247137, 25.648723586110108 ], [ 92.230633200650004, 25.524451638111056 ], [ 92.356076878012558, 25.388277792880597 ], [ 92.465958753657361, 25.241550555168335 ], [ 92.559268109477088, 25.085714792639063 ], [ 92.635167069874299, 24.922296543319501 ], [ 92.692995832605988, 24.752887379491266 ], [ 92.732275835204902, 24.579128510781832 ], [ 92.75271098729354, 24.402694790446127 ], [ 92.754187116188092, 24.22527876920811 ], [ 92.736769780537614, 24.04857492198218 ], [ 92.700700605723313, 23.874264155519349 ], [ 92.646392287082861, 23.703998690421322 ], [ 92.574422394647527, 23.539387399596659 ], [ 92.440846258317634, 23.311034996419771 ], [ 92.213242985265637, 22.97662544313954 ], [ 92.05370432578151, 22.794879666916739 ], [ 91.626696803291196, 22.366139975006018 ], [ 91.692184292650126, 22.082057050810853 ], [ 91.708151314570131, 21.977877086617301 ], [ 91.735859424329789, 21.889757073160414 ], [ 91.793050954498057, 21.644577670030749 ], [ 91.824197784995491, 21.39535316123775 ], [ 91.829140230924494, 21.144474102810921 ], [ 91.807965485759922, 20.894333770712876 ], [ 91.660980147411735, 20.073318662224853 ], [ 91.699667959745881, 19.772223020130973 ], [ 91.704931487380449, 19.539521815263782 ], [ 91.686206918976211, 19.307440142409803 ], [ 91.643771649254219, 19.07818473700527 ], [ 91.575959418805894, 18.848616931878421 ], [ 91.695167457011181, 18.667603886823187 ], [ 91.79315976901735, 18.501917456210464 ], [ 91.873512745419603, 18.327868085990772 ], [ 91.935510007226284, 18.147145518451474 ], [ 91.978617311934826, 17.961496616099339 ], [ 92.007854946066956, 17.731970059275785 ], [ 92.012310587863723, 17.542386223060195 ], [ 91.997439640920703, 17.353288605656218 ], [ 91.963441868168175, 17.166478957380924 ], [ 91.910693969302159, 16.983732634426975 ], [ 91.839744322620291, 16.806782682040989 ], [ 91.721682860982625, 16.592113741288777 ], [ 91.681103168473385, 16.450019220223439 ], [ 91.615441006850617, 16.284878103857174 ], [ 91.511614975305719, 16.087833661626185 ], [ 91.401675985414215, 15.920174670299147 ], [ 91.312281315376651, 15.681648273532556 ], [ 91.230904262148456, 15.523209534405877 ], [ 91.020463979953774, 15.205316021794603 ], [ 90.923714624431966, 15.018810619773886 ], [ 90.82736929619935, 14.868543739248723 ], [ 90.441778496235059, 14.364053792595374 ], [ 90.287950439794258, 14.200446081688517 ], [ 90.15173919347032, 14.083261151628285 ], [ 89.637441363680651, 13.704293905393962 ], [ 89.480950009585328, 13.614751397206033 ], [ 89.316329626976653, 13.540514763842065 ], [ 89.145135376775272, 13.482290540117578 ], [ 88.96898228114091, 13.440634027166492 ], [ 88.789530766538363, 13.415943945509786 ] ] ] } }
]
}
