{
"type": "FeatureCollection",
"name": "remal_infrastructure_points",
"crs": { "type": "name", "properties": { "name": "urn:ogc:def:crs:OGC:1.3:CRS84" } },
"features": [
{ "type": "Feature", "properties": { "id": "osm_hosp_wb_01", "name": "Canning Sub-Divisional Hospital", "highway_type": null, "infra_type": "hospital", "osm_tag": "amenity=hospital", "district": "South 24 Parganas", "state": "West Bengal", "country_left": "India", "corridor_type": null, "facility_level": "Sub-Divisional Hospital (Secondary)", "bed_capacity": 150, "backup_power": "Diesel Generator (30 kVA)", "elevation_m": 3.8, "lanes": null, "lat": 22.315, "lon": 88.662, "state_or_division_left": "NaN", "index_right": 0, "district_name": "South 24 Parganas", "state_or_division_right": "West Bengal", "country_right": "India", "wind_zone": "core", "wind_speed_kts": 60.0, "wind_hazard_desc": "Core Hurricane / Violent Storm Zone (>48 kts)", "surge_tier": "none", "surge_depth_m": 0.0, "surge_threat_level": "NONE", "rain_tier": "extreme_rain", "rainfall_mm": 225.0, "threat_tier": "HIGH_RISK", "action_directive": "HIGH RISK: Gale gusts (60.0 kts) and tidal waterlogging. Lock down glass facades, secure diesel fuel reserves for Diesel Generator (30 kVA)." }, "geometry": { "type": "Point", "coordinates": [ 88.662, 22.315 ] } },
{ "type": "Feature", "properties": { "id": "osm_hosp_wb_02", "name": "Kakdwip Super Speciality Hospital", "highway_type": null, "infra_type": "hospital", "osm_tag": "amenity=hospital", "district": "South 24 Parganas", "state": "West Bengal", "country_left": "India", "corridor_type": null, "facility_level": "Super Speciality Hospital", "bed_capacity": 300, "backup_power": "Dual Diesel Generator (100 kVA)", "elevation_m": 4.2, "lanes": null, "lat": 21.876, "lon": 88.191, "state_or_division_left": "NaN", "index_right": 0, "district_name": "South 24 Parganas", "state_or_division_right": "West Bengal", "country_right": "India", "wind_zone": "moderate", "wind_speed_kts": 42.0, "wind_hazard_desc": "Moderate Gale-Force Zone (34 - 47 kts)", "surge_tier": "none", "surge_depth_m": 0.0, "surge_threat_level": "NONE", "rain_tier": "heavy_rain", "rainfall_mm": 145.0, "threat_tier": "MODERATE_RISK", "action_directive": "MODERATE: Monitor drainage outfalls for urban waterlogging; maintain active emergency casualty ward." }, "geometry": { "type": "Point", "coordinates": [ 88.191, 21.876 ] } },
{ "type": "Feature", "properties": { "id": "osm_hosp_wb_03", "name": "Sagar Rural Hospital (Rudranagar)", "highway_type": null, "infra_type": "hospital", "osm_tag": "amenity=hospital", "district": "South 24 Parganas", "state": "West Bengal", "country_left": "India", "corridor_type": null, "facility_level": "Rural Hospital (Primary)", "bed_capacity": 50, "backup_power": "Solar-DG Hybrid (20 kVA)", "elevation_m": 2.6, "lanes": null, "lat": 21.688, "lon": 88.082, "state_or_division_left": "NaN", "index_right": 0, "district_name": "South 24 Parganas", "state_or_division_right": "West Bengal", "country_right": "India", "wind_zone": "moderate", "wind_speed_kts": 42.0, "wind_hazard_desc": "Moderate Gale-Force Zone (34 - 47 kts)", "surge_tier": "none", "surge_depth_m": 0.0, "surge_threat_level": "NONE", "rain_tier": "heavy_rain", "rainfall_mm": 145.0, "threat_tier": "MODERATE_RISK", "action_directive": "MODERATE: Monitor drainage outfalls for urban waterlogging; maintain active emergency casualty ward." }, "geometry": { "type": "Point", "coordinates": [ 88.082, 21.688 ] } },
{ "type": "Feature", "properties": { "id": "osm_hosp_wb_04", "name": "Gosaba Block Primary Health Centre (BPHC)", "highway_type": null, "infra_type": "hospital", "osm_tag": "amenity=hospital", "district": "South 24 Parganas", "state": "West Bengal", "country_left": "India", "corridor_type": null, "facility_level": "Block Primary Health Centre", "bed_capacity": 30, "backup_power": "Single DG (15 kVA)", "elevation_m": 2.1, "lanes": null, "lat": 22.164, "lon": 88.805, "state_or_division_left": "NaN", "index_right": 0, "district_name": "South 24 Parganas", "state_or_division_right": "West Bengal", "country_right": "India", "wind_zone": "core", "wind_speed_kts": 60.0, "wind_hazard_desc": "Core Hurricane / Violent Storm Zone (>48 kts)", "surge_tier": "high", "surge_depth_m": 2.0, "surge_threat_level": "SEVERE (1.5 - 2.5m Inundation)", "rain_tier": "extreme_rain", "rainfall_mm": 225.0, "threat_tier": "CRITICAL_RISK", "action_directive": "URGENT: Submersion imminent (+2.0m). Pre-position high-capacity dewatering pumps, relocate 30 patients to upper floor/terrace, activate roof DG." }, "geometry": { "type": "Point", "coordinates": [ 88.805, 22.164 ] } },
{ "type": "Feature", "properties": { "id": "osm_hosp_wb_05", "name": "Basanti Rural Hospital", "highway_type": null, "infra_type": "hospital", "osm_tag": "amenity=hospital", "district": "South 24 Parganas", "state": "West Bengal", "country_left": "India", "corridor_type": null, "facility_level": "Rural Hospital", "bed_capacity": 40, "backup_power": "DG Set (25 kVA)", "elevation_m": 3.0, "lanes": null, "lat": 22.197, "lon": 88.718, "state_or_division_left": "NaN", "index_right": 0, "district_name": "South 24 Parganas", "state_or_division_right": "West Bengal", "country_right": "India", "wind_zone": "core", "wind_speed_kts": 60.0, "wind_hazard_desc": "Core Hurricane / Violent Storm Zone (>48 kts)", "surge_tier": "high", "surge_depth_m": 2.0, "surge_threat_level": "SEVERE (1.5 - 2.5m Inundation)", "rain_tier": "extreme_rain", "rainfall_mm": 225.0, "threat_tier": "CRITICAL_RISK", "action_directive": "URGENT: Submersion imminent (+2.0m). Pre-position high-capacity dewatering pumps, relocate 40 patients to upper floor/terrace, activate roof DG." }, "geometry": { "type": "Point", "coordinates": [ 88.718, 22.197 ] } },
{ "type": "Feature", "properties": { "id": "osm_hosp_wb_06", "name": "Diamond Harbour Govt Medical College & Hospital", "highway_type": null, "infra_type": "hospital", "osm_tag": "amenity=hospital", "district": "South 24 Parganas", "state": "West Bengal", "country_left": "India", "corridor_type": null, "facility_level": "Tertiary Medical College", "bed_capacity": 500, "backup_power": "Dedicated Substation + DG (250 kVA)", "elevation_m": 5.4, "lanes": null, "lat": 22.193, "lon": 88.198, "state_or_division_left": "NaN", "index_right": 0, "district_name": "South 24 Parganas", "state_or_division_right": "West Bengal", "country_right": "India", "wind_zone": "moderate", "wind_speed_kts": 42.0, "wind_hazard_desc": "Moderate Gale-Force Zone (34 - 47 kts)", "surge_tier": "none", "surge_depth_m": 0.0, "surge_threat_level": "NONE", "rain_tier": "heavy_rain", "rainfall_mm": 145.0, "threat_tier": "MODERATE_RISK", "action_directive": "MODERATE: Monitor drainage outfalls for urban waterlogging; maintain active emergency casualty ward." }, "geometry": { "type": "Point", "coordinates": [ 88.198, 22.193 ] } },
{ "type": "Feature", "properties": { "id": "osm_hosp_wb_07", "name": "Kultali BPHC (Jamtala)", "highway_type": null, "infra_type": "hospital", "osm_tag": "amenity=clinic", "district": "South 24 Parganas", "state": "West Bengal", "country_left": "India", "corridor_type": null, "facility_level": "Primary Health Centre", "bed_capacity": 25, "backup_power": "DG Set (10 kVA)", "elevation_m": 2.3, "lanes": null, "lat": 22.062, "lon": 88.583, "state_or_division_left": "NaN", "index_right": 0, "district_name": "South 24 Parganas", "state_or_division_right": "West Bengal", "country_right": "India", "wind_zone": "core", "wind_speed_kts": 60.0, "wind_hazard_desc": "Core Hurricane / Violent Storm Zone (>48 kts)", "surge_tier": "extreme", "surge_depth_m": 3.2, "surge_threat_level": "CATASTROPHIC (>2.5m Submersion)", "rain_tier": "extreme_rain", "rainfall_mm": 225.0, "threat_tier": "CRITICAL_RISK", "action_directive": "URGENT: Submersion imminent (+3.2m). Pre-position high-capacity dewatering pumps, relocate 25 patients to upper floor/terrace, activate roof DG." }, "geometry": { "type": "Point", "coordinates": [ 88.583, 22.062 ] } },
{ "type": "Feature", "properties": { "id": "osm_hosp_wb_08", "name": "Namkhana Rural Hospital", "highway_type": null, "infra_type": "hospital", "osm_tag": "amenity=hospital", "district": "South 24 Parganas", "state": "West Bengal", "country_left": "India", "corridor_type": null, "facility_level": "Rural Hospital", "bed_capacity": 40, "backup_power": "DG Set (20 kVA)", "elevation_m": 2.5, "lanes": null, "lat": 21.768, "lon": 88.232, "state_or_division_left": "NaN", "index_right": 0, "district_name": "South 24 Parganas", "state_or_division_right": "West Bengal", "country_right": "India", "wind_zone": "moderate", "wind_speed_kts": 42.0, "wind_hazard_desc": "Moderate Gale-Force Zone (34 - 47 kts)", "surge_tier": "none", "surge_depth_m": 0.0, "surge_threat_level": "NONE", "rain_tier": "extreme_rain", "rainfall_mm": 225.0, "threat_tier": "MODERATE_RISK", "action_directive": "MODERATE: Monitor drainage outfalls for urban waterlogging; maintain active emergency casualty ward." }, "geometry": { "type": "Point", "coordinates": [ 88.232, 21.768 ] } },
{ "type": "Feature", "properties": { "id": "osm_hosp_wb_09", "name": "Patharpratima BPHC (Madhabnagar)", "highway_type": null, "infra_type": "hospital", "osm_tag": "amenity=clinic", "district": "South 24 Parganas", "state": "West Bengal", "country_left": "India", "corridor_type": null, "facility_level": "Primary Health Centre", "bed_capacity": 30, "backup_power": "DG Set (15 kVA)", "elevation_m": 2.2, "lanes": null, "lat": 21.792, "lon": 88.354, "state_or_division_left": "NaN", "index_right": 0, "district_name": "South 24 Parganas", "state_or_division_right": "West Bengal", "country_right": "India", "wind_zone": "core", "wind_speed_kts": 60.0, "wind_hazard_desc": "Core Hurricane / Violent Storm Zone (>48 kts)", "surge_tier": "extreme", "surge_depth_m": 3.2, "surge_threat_level": "CATASTROPHIC (>2.5m Submersion)", "rain_tier": "extreme_rain", "rainfall_mm": 225.0, "threat_tier": "CRITICAL_RISK", "action_directive": "URGENT: Submersion imminent (+3.2m). Pre-position high-capacity dewatering pumps, relocate 30 patients to upper floor/terrace, activate roof DG." }, "geometry": { "type": "Point", "coordinates": [ 88.354, 21.792 ] } },
{ "type": "Feature", "properties": { "id": "osm_hosp_wb_10", "name": "Bakkhali Coastal Primary Health Centre", "highway_type": null, "infra_type": "hospital", "osm_tag": "amenity=clinic", "district": "South 24 Parganas", "state": "West Bengal", "country_left": "India", "corridor_type": null, "facility_level": "Coastal PHC", "bed_capacity": 15, "backup_power": "Solar Inverter", "elevation_m": 1.9, "lanes": null, "lat": 21.564, "lon": 88.261, "state_or_division_left": "NaN", "index_right": 0, "district_name": "South 24 Parganas", "state_or_division_right": "West Bengal", "country_right": "India", "wind_zone": "moderate", "wind_speed_kts": 42.0, "wind_hazard_desc": "Moderate Gale-Force Zone (34 - 47 kts)", "surge_tier": "none", "surge_depth_m": 0.0, "surge_threat_level": "NONE", "rain_tier": "extreme_rain", "rainfall_mm": 225.0, "threat_tier": "MODERATE_RISK", "action_directive": "MODERATE: Monitor drainage outfalls for urban waterlogging; maintain active emergency casualty ward." }, "geometry": { "type": "Point", "coordinates": [ 88.261, 21.564 ] } },
{ "type": "Feature", "properties": { "id": "osm_shelt_wb_01", "name": "Gangasagar Multipurpose Cyclone Shelter (MPCS 01)", "highway_type": null, "infra_type": "shelter", "osm_tag": "amenity=shelter", "district": "South 24 Parganas", "state": "West Bengal", "country_left": "India", "corridor_type": null, "facility_level": "Multipurpose Cyclone Shelter", "bed_capacity": 1200, "backup_power": "Solar-DG Integrated", "elevation_m": 3.5, "lanes": null, "lat": 21.649, "lon": 88.064, "state_or_division_left": "NaN", "index_right": 0, "district_name": "South 24 Parganas", "state_or_division_right": "West Bengal", "country_right": "India", "wind_zone": "moderate", "wind_speed_kts": 42.0, "wind_hazard_desc": "Moderate Gale-Force Zone (34 - 47 kts)", "surge_tier": "none", "surge_depth_m": 0.0, "surge_threat_level": "NONE", "rain_tier": "heavy_rain", "rainfall_mm": 145.0, "threat_tier": "MODERATE_RISK", "action_directive": "ACTIVE: Reception ready for peripheral evacuees; verify solar emergency lighting." }, "geometry": { "type": "Point", "coordinates": [ 88.064, 21.649 ] } },
{ "type": "Feature", "properties": { "id": "osm_shelt_wb_02", "name": "Chemaguri Coastal Cyclone Shelter", "highway_type": null, "infra_type": "shelter", "osm_tag": "amenity=shelter", "district": "South 24 Parganas", "state": "West Bengal", "country_left": "India", "corridor_type": null, "facility_level": "Coastal Cyclone Shelter", "bed_capacity": 800, "backup_power": "Portable DG", "elevation_m": 2.8, "lanes": null, "lat": 21.612, "lon": 88.098, "state_or_division_left": "NaN", "index_right": 0, "district_name": "South 24 Parganas", "state_or_division_right": "West Bengal", "country_right": "India", "wind_zone": "moderate", "wind_speed_kts": 42.0, "wind_hazard_desc": "Moderate Gale-Force Zone (34 - 47 kts)", "surge_tier": "none", "surge_depth_m": 0.0, "surge_threat_level": "NONE", "rain_tier": "heavy_rain", "rainfall_mm": 145.0, "threat_tier": "MODERATE_RISK", "action_directive": "ACTIVE: Reception ready for peripheral evacuees; verify solar emergency lighting." }, "geometry": { "type": "Point", "coordinates": [ 88.098, 21.612 ] } },
{ "type": "Feature", "properties": { "id": "osm_shelt_wb_03", "name": "Bakkhali Cyclone Shelter & Youth Hostel", "highway_type": null, "infra_type": "shelter", "osm_tag": "amenity=shelter", "district": "South 24 Parganas", "state": "West Bengal", "country_left": "India", "corridor_type": null, "facility_level": "Dedicated Cyclone Shelter", "bed_capacity": 1000, "backup_power": "DG Set (20 kVA)", "elevation_m": 3.0, "lanes": null, "lat": 21.568, "lon": 88.267, "state_or_division_left": "NaN", "index_right": 0, "district_name": "South 24 Parganas", "state_or_division_right": "West Bengal", "country_right": "India", "wind_zone": "moderate", "wind_speed_kts": 42.0, "wind_hazard_desc": "Moderate Gale-Force Zone (34 - 47 kts)", "surge_tier": "none", "surge_depth_m": 0.0, "surge_threat_level": "NONE", "rain_tier": "extreme_rain", "rainfall_mm": 225.0, "threat_tier": "MODERATE_RISK", "action_directive": "ACTIVE: Reception ready for peripheral evacuees; verify solar emergency lighting." }, "geometry": { "type": "Point", "coordinates": [ 88.267, 21.568 ] } },
{ "type": "Feature", "properties": { "id": "osm_shelt_wb_04", "name": "Freserganj Marine Cyclone Shelter", "highway_type": null, "infra_type": "shelter", "osm_tag": "amenity=shelter", "district": "South 24 Parganas", "state": "West Bengal", "country_left": "India", "corridor_type": null, "facility_level": "Dedicated Cyclone Shelter", "bed_capacity": 750, "backup_power": "Solar Power", "elevation_m": 2.4, "lanes": null, "lat": 21.589, "lon": 88.253, "state_or_division_left": "NaN", "index_right": 0, "district_name": "South 24 Parganas", "state_or_division_right": "West Bengal", "country_right": "India", "wind_zone": "moderate", "wind_speed_kts": 42.0, "wind_hazard_desc": "Moderate Gale-Force Zone (34 - 47 kts)", "surge_tier": "none", "surge_depth_m": 0.0, "surge_threat_level": "NONE", "rain_tier": "extreme_rain", "rainfall_mm": 225.0, "threat_tier": "MODERATE_RISK", "action_directive": "ACTIVE: Reception ready for peripheral evacuees; verify solar emergency lighting." }, "geometry": { "type": "Point", "coordinates": [ 88.253, 21.589 ] } },
{ "type": "Feature", "properties": { "id": "osm_shelt_wb_05", "name": "Kakdwip Birendra Vidyaniketan Evacuation Shelter", "highway_type": null, "infra_type": "shelter", "osm_tag": "building=school", "district": "South 24 Parganas", "state": "West Bengal", "country_left": "India", "corridor_type": null, "facility_level": "Designated School Shelter", "bed_capacity": 600, "backup_power": "None (Grid Only)", "elevation_m": 4.5, "lanes": null, "lat": 21.879, "lon": 88.188, "state_or_division_left": "NaN", "index_right": 0, "district_name": "South 24 Parganas", "state_or_division_right": "West Bengal", "country_right": "India", "wind_zone": "moderate", "wind_speed_kts": 42.0, "wind_hazard_desc": "Moderate Gale-Force Zone (34 - 47 kts)", "surge_tier": "none", "surge_depth_m": 0.0, "surge_threat_level": "NONE", "rain_tier": "heavy_rain", "rainfall_mm": 145.0, "threat_tier": "MODERATE_RISK", "action_directive": "ACTIVE: Reception ready for peripheral evacuees; verify solar emergency lighting." }, "geometry": { "type": "Point", "coordinates": [ 88.188, 21.879 ] } },
{ "type": "Feature", "properties": { "id": "osm_shelt_wb_06", "name": "Gosaba Rangabelia Flood Shelter", "highway_type": null, "infra_type": "shelter", "osm_tag": "amenity=shelter", "district": "South 24 Parganas", "state": "West Bengal", "country_left": "India", "corridor_type": null, "facility_level": "Community Flood Shelter", "bed_capacity": 900, "backup_power": "Solar System", "elevation_m": 2.3, "lanes": null, "lat": 22.152, "lon": 88.824, "state_or_division_left": "NaN", "index_right": 0, "district_name": "South 24 Parganas", "state_or_division_right": "West Bengal", "country_right": "India", "wind_zone": "core", "wind_speed_kts": 60.0, "wind_hazard_desc": "Core Hurricane / Violent Storm Zone (>48 kts)", "surge_tier": "extreme", "surge_depth_m": 3.2, "surge_threat_level": "CATASTROPHIC (>2.5m Submersion)", "rain_tier": "extreme_rain", "rainfall_mm": 225.0, "threat_tier": "CRITICAL_RISK", "action_directive": "WARNING: Embankment breach at shelter perimeter (+3.2m surge). Deploy NDRF Gemini inflatable boats; prepare secondary evacuation to inland hub." }, "geometry": { "type": "Point", "coordinates": [ 88.824, 22.152 ] } },
{ "type": "Feature", "properties": { "id": "osm_shelt_wb_07", "name": "Pakhiralay Community Relief Shelter (Sundarbans)", "highway_type": null, "infra_type": "shelter", "osm_tag": "amenity=community_centre", "district": "South 24 Parganas", "state": "West Bengal", "country_left": "India", "corridor_type": null, "facility_level": "Community Centre Shelter", "bed_capacity": 500, "backup_power": "Portable DG", "elevation_m": 2.2, "lanes": null, "lat": 22.148, "lon": 88.835, "state_or_division_left": "NaN", "index_right": 0, "district_name": "South 24 Parganas", "state_or_division_right": "West Bengal", "country_right": "India", "wind_zone": "core", "wind_speed_kts": 60.0, "wind_hazard_desc": "Core Hurricane / Violent Storm Zone (>48 kts)", "surge_tier": "extreme", "surge_depth_m": 3.2, "surge_threat_level": "CATASTROPHIC (>2.5m Submersion)", "rain_tier": "extreme_rain", "rainfall_mm": 225.0, "threat_tier": "CRITICAL_RISK", "action_directive": "WARNING: Embankment breach at shelter perimeter (+3.2m surge). Deploy NDRF Gemini inflatable boats; prepare secondary evacuation to inland hub." }, "geometry": { "type": "Point", "coordinates": [ 88.835, 22.148 ] } },
{ "type": "Feature", "properties": { "id": "osm_shelt_wb_08", "name": "Basanti High School Evacuation Center", "highway_type": null, "infra_type": "shelter", "osm_tag": "building=school", "district": "South 24 Parganas", "state": "West Bengal", "country_left": "India", "corridor_type": null, "facility_level": "Designated School Shelter", "bed_capacity": 700, "backup_power": "None (Grid Only)", "elevation_m": 3.2, "lanes": null, "lat": 22.199, "lon": 88.715, "state_or_division_left": "NaN", "index_right": 0, "district_name": "South 24 Parganas", "state_or_division_right": "West Bengal", "country_right": "India", "wind_zone": "core", "wind_speed_kts": 60.0, "wind_hazard_desc": "Core Hurricane / Violent Storm Zone (>48 kts)", "surge_tier": "high", "surge_depth_m": 2.0, "surge_threat_level": "SEVERE (1.5 - 2.5m Inundation)", "rain_tier": "extreme_rain", "rainfall_mm": 225.0, "threat_tier": "CRITICAL_RISK", "action_directive": "WARNING: Embankment breach at shelter perimeter (+2.0m surge). Deploy NDRF Gemini inflatable boats; prepare secondary evacuation to inland hub." }, "geometry": { "type": "Point", "coordinates": [ 88.715, 22.199 ] } },
{ "type": "Feature", "properties": { "id": "osm_shelt_wb_09", "name": "Canning Town Girls High School Shelter", "highway_type": null, "infra_type": "shelter", "osm_tag": "building=school", "district": "South 24 Parganas", "state": "West Bengal", "country_left": "India", "corridor_type": null, "facility_level": "Designated School Shelter", "bed_capacity": 850, "backup_power": "DG Set (10 kVA)", "elevation_m": 4.1, "lanes": null, "lat": 22.312, "lon": 88.665, "state_or_division_left": "NaN", "index_right": 0, "district_name": "South 24 Parganas", "state_or_division_right": "West Bengal", "country_right": "India", "wind_zone": "core", "wind_speed_kts": 60.0, "wind_hazard_desc": "Core Hurricane / Violent Storm Zone (>48 kts)", "surge_tier": "none", "surge_depth_m": 0.0, "surge_threat_level": "NONE", "rain_tier": "extreme_rain", "rainfall_mm": 225.0, "threat_tier": "HIGH_RISK", "action_directive": "OPERATIONAL (HIGH CAPACITY): Shelter at capacity (850 persons). Secure external shutters, distribute potable water tablets and dry rations." }, "geometry": { "type": "Point", "coordinates": [ 88.665, 22.312 ] } },
{ "type": "Feature", "properties": { "id": "osm_shelt_wb_10", "name": "Kultali Maipith Coastal Flood Shelter", "highway_type": null, "infra_type": "shelter", "osm_tag": "amenity=shelter", "district": "South 24 Parganas", "state": "West Bengal", "country_left": "India", "corridor_type": null, "facility_level": "Dedicated Cyclone Shelter", "bed_capacity": 1100, "backup_power": "Solar-DG Hybrid", "elevation_m": 2.0, "lanes": null, "lat": 21.968, "lon": 88.552, "state_or_division_left": "NaN", "index_right": 0, "district_name": "South 24 Parganas", "state_or_division_right": "West Bengal", "country_right": "India", "wind_zone": "core", "wind_speed_kts": 60.0, "wind_hazard_desc": "Core Hurricane / Violent Storm Zone (>48 kts)", "surge_tier": "extreme", "surge_depth_m": 3.2, "surge_threat_level": "CATASTROPHIC (>2.5m Submersion)", "rain_tier": "extreme_rain", "rainfall_mm": 225.0, "threat_tier": "CRITICAL_RISK", "action_directive": "WARNING: Embankment breach at shelter perimeter (+3.2m surge). Deploy NDRF Gemini inflatable boats; prepare secondary evacuation to inland hub." }, "geometry": { "type": "Point", "coordinates": [ 88.552, 21.968 ] } },
{ "type": "Feature", "properties": { "id": "osm_pwr_wb_01", "name": "220/132kV Canning Grid Substation (WBSETCL)", "highway_type": null, "infra_type": "power_substation", "osm_tag": "power=substation", "district": "South 24 Parganas", "state": "West Bengal", "country_left": "India", "corridor_type": null, "facility_level": "220kV Extra High Voltage Grid", "bed_capacity": 0, "backup_power": "Station Battery Bank 220V", "elevation_m": 4.0, "lanes": null, "lat": 22.321, "lon": 88.658, "state_or_division_left": "NaN", "index_right": 0, "district_name": "South 24 Parganas", "state_or_division_right": "West Bengal", "country_right": "India", "wind_zone": "core", "wind_speed_kts": 60.0, "wind_hazard_desc": "Core Hurricane / Violent Storm Zone (>48 kts)", "surge_tier": "none", "surge_depth_m": 0.0, "surge_threat_level": "NONE", "rain_tier": "extreme_rain", "rainfall_mm": 225.0, "threat_tier": "HIGH_RISK", "action_directive": "HIGH RISK: Severe hurricane-force gusts. Monitor transmission tower line sag; stage emergency feeder restoration crews." }, "geometry": { "type": "Point", "coordinates": [ 88.658, 22.321 ] } },
{ "type": "Feature", "properties": { "id": "osm_pwr_wb_02", "name": "132/33kV Kakdwip Grid Substation (WBSETCL)", "highway_type": null, "infra_type": "power_substation", "osm_tag": "power=substation", "district": "South 24 Parganas", "state": "West Bengal", "country_left": "India", "corridor_type": null, "facility_level": "132kV Primary Grid Substation", "bed_capacity": 0, "backup_power": "Station Battery Bank 110V", "elevation_m": 4.3, "lanes": null, "lat": 21.882, "lon": 88.185, "state_or_division_left": "NaN", "index_right": 0, "district_name": "South 24 Parganas", "state_or_division_right": "West Bengal", "country_right": "India", "wind_zone": "moderate", "wind_speed_kts": 42.0, "wind_hazard_desc": "Moderate Gale-Force Zone (34 - 47 kts)", "surge_tier": "none", "surge_depth_m": 0.0, "surge_threat_level": "NONE", "rain_tier": "heavy_rain", "rainfall_mm": 145.0, "threat_tier": "MODERATE_RISK", "action_directive": "MODERATE: High winds and intense localized runoff; maintain standby status." }, "geometry": { "type": "Point", "coordinates": [ 88.185, 21.882 ] } },
{ "type": "Feature", "properties": { "id": "osm_pwr_wb_03", "name": "132/33kV Diamond Harbour Substation", "highway_type": null, "infra_type": "power_substation", "osm_tag": "power=substation", "district": "South 24 Parganas", "state": "West Bengal", "country_left": "India", "corridor_type": null, "facility_level": "132kV Primary Transmission Substation", "bed_capacity": 0, "backup_power": "Station Battery Bank", "elevation_m": 5.6, "lanes": null, "lat": 22.201, "lon": 88.204, "state_or_division_left": "NaN", "index_right": 0, "district_name": "South 24 Parganas", "state_or_division_right": "West Bengal", "country_right": "India", "wind_zone": "moderate", "wind_speed_kts": 42.0, "wind_hazard_desc": "Moderate Gale-Force Zone (34 - 47 kts)", "surge_tier": "none", "surge_depth_m": 0.0, "surge_threat_level": "NONE", "rain_tier": "heavy_rain", "rainfall_mm": 145.0, "threat_tier": "MODERATE_RISK", "action_directive": "MODERATE: High winds and intense localized runoff; maintain standby status." }, "geometry": { "type": "Point", "coordinates": [ 88.204, 22.201 ] } },
{ "type": "Feature", "properties": { "id": "osm_pwr_wb_04", "name": "33/11kV Rudranagar Substation (Sagar Island)", "highway_type": null, "infra_type": "power_substation", "osm_tag": "power=substation", "district": "South 24 Parganas", "state": "West Bengal", "country_left": "India", "corridor_type": null, "facility_level": "33kV Island Distribution Substation", "bed_capacity": 0, "backup_power": "Substation Batteries", "elevation_m": 2.7, "lanes": null, "lat": 21.691, "lon": 88.079, "state_or_division_left": "NaN", "index_right": 0, "district_name": "South 24 Parganas", "state_or_division_right": "West Bengal", "country_right": "India", "wind_zone": "moderate", "wind_speed_kts": 42.0, "wind_hazard_desc": "Moderate Gale-Force Zone (34 - 47 kts)", "surge_tier": "none", "surge_depth_m": 0.0, "surge_threat_level": "NONE", "rain_tier": "heavy_rain", "rainfall_mm": 145.0, "threat_tier": "MODERATE_RISK", "action_directive": "MODERATE: High winds and intense localized runoff; maintain standby status." }, "geometry": { "type": "Point", "coordinates": [ 88.079, 21.691 ] } },
{ "type": "Feature", "properties": { "id": "osm_pwr_wb_05", "name": "33/11kV Gosaba Switching Substation", "highway_type": null, "infra_type": "power_substation", "osm_tag": "power=substation", "district": "South 24 Parganas", "state": "West Bengal", "country_left": "India", "corridor_type": null, "facility_level": "33kV Tidal Island Switching Station", "bed_capacity": 0, "backup_power": "DC Battery", "elevation_m": 2.2, "lanes": null, "lat": 22.167, "lon": 88.802, "state_or_division_left": "NaN", "index_right": 0, "district_name": "South 24 Parganas", "state_or_division_right": "West Bengal", "country_right": "India", "wind_zone": "core", "wind_speed_kts": 60.0, "wind_hazard_desc": "Core Hurricane / Violent Storm Zone (>48 kts)", "surge_tier": "high", "surge_depth_m": 2.0, "surge_threat_level": "SEVERE (1.5 - 2.5m Inundation)", "rain_tier": "extreme_rain", "rainfall_mm": 225.0, "threat_tier": "CRITICAL_RISK", "action_directive": "EMERGENCY: Saltwater inundation hazard. Proactively isolate 33kV switchyard to prevent catastrophic transformer explosion and grid cascade failure." }, "geometry": { "type": "Point", "coordinates": [ 88.802, 22.167 ] } },
{ "type": "Feature", "properties": { "id": "osm_pwr_wb_06", "name": "33/11kV Bakkhali Coastal Substation", "highway_type": null, "infra_type": "power_substation", "osm_tag": "power=substation", "district": "South 24 Parganas", "state": "West Bengal", "country_left": "India", "corridor_type": null, "facility_level": "33kV Coastal Substation", "bed_capacity": 0, "backup_power": "Battery Backup", "elevation_m": 2.4, "lanes": null, "lat": 21.572, "lon": 88.258, "state_or_division_left": "NaN", "index_right": 0, "district_name": "South 24 Parganas", "state_or_division_right": "West Bengal", "country_right": "India", "wind_zone": "moderate", "wind_speed_kts": 42.0, "wind_hazard_desc": "Moderate Gale-Force Zone (34 - 47 kts)", "surge_tier": "none", "surge_depth_m": 0.0, "surge_threat_level": "NONE", "rain_tier": "extreme_rain", "rainfall_mm": 225.0, "threat_tier": "MODERATE_RISK", "action_directive": "MODERATE: High winds and intense localized runoff; maintain standby status." }, "geometry": { "type": "Point", "coordinates": [ 88.258, 21.572 ] } },
{ "type": "Feature", "properties": { "id": "osm_hosp_nb_01", "name": "Basirhat District Hospital", "highway_type": null, "infra_type": "hospital", "osm_tag": "amenity=hospital", "district": "North 24 Parganas", "state": "West Bengal", "country_left": "India", "corridor_type": null, "facility_level": "District Hospital (Secondary/Tertiary)", "bed_capacity": 350, "backup_power": "Dual DG (125 kVA)", "elevation_m": 5.1, "lanes": null, "lat": 22.658, "lon": 88.861, "state_or_division_left": "NaN", "index_right": 1, "district_name": "North 24 Parganas", "state_or_division_right": "West Bengal", "country_right": "India", "wind_zone": "core", "wind_speed_kts": 60.0, "wind_hazard_desc": "Core Hurricane / Violent Storm Zone (>48 kts)", "surge_tier": "none", "surge_depth_m": 0.0, "surge_threat_level": "NONE", "rain_tier": "extreme_rain", "rainfall_mm": 225.0, "threat_tier": "HIGH_RISK", "action_directive": "HIGH RISK: Gale gusts (60.0 kts) and tidal waterlogging. Lock down glass facades, secure diesel fuel reserves for Dual DG (125 kVA)." }, "geometry": { "type": "Point", "coordinates": [ 88.861, 22.658 ] } },
{ "type": "Feature", "properties": { "id": "osm_hosp_nb_02", "name": "Hasnabad Rural Hospital", "highway_type": null, "infra_type": "hospital", "osm_tag": "amenity=hospital", "district": "North 24 Parganas", "state": "West Bengal", "country_left": "India", "corridor_type": null, "facility_level": "Rural Hospital", "bed_capacity": 45, "backup_power": "DG Set (25 kVA)", "elevation_m": 3.8, "lanes": null, "lat": 22.582, "lon": 88.918, "state_or_division_left": "NaN", "index_right": 1, "district_name": "North 24 Parganas", "state_or_division_right": "West Bengal", "country_right": "India", "wind_zone": "core", "wind_speed_kts": 60.0, "wind_hazard_desc": "Core Hurricane / Violent Storm Zone (>48 kts)", "surge_tier": "none", "surge_depth_m": 0.0, "surge_threat_level": "NONE", "rain_tier": "extreme_rain", "rainfall_mm": 225.0, "threat_tier": "HIGH_RISK", "action_directive": "HIGH RISK: Gale gusts (60.0 kts) and tidal waterlogging. Lock down glass facades, secure diesel fuel reserves for DG Set (25 kVA)." }, "geometry": { "type": "Point", "coordinates": [ 88.918, 22.582 ] } },
{ "type": "Feature", "properties": { "id": "osm_hosp_nb_03", "name": "Hingalganj Rural Hospital", "highway_type": null, "infra_type": "hospital", "osm_tag": "amenity=hospital", "district": "Satkhira", "state": "West Bengal", "country_left": "India", "corridor_type": null, "facility_level": "Rural Hospital", "bed_capacity": 30, "backup_power": "DG Set (20 kVA)", "elevation_m": 2.9, "lanes": null, "lat": 22.469, "lon": 88.981, "state_or_division_left": "NaN", "index_right": 5, "district_name": "Satkhira", "state_or_division_right": "Khulna", "country_right": "Bangladesh", "wind_zone": "core", "wind_speed_kts": 60.0, "wind_hazard_desc": "Core Hurricane / Violent Storm Zone (>48 kts)", "surge_tier": "none", "surge_depth_m": 0.0, "surge_threat_level": "NONE", "rain_tier": "extreme_rain", "rainfall_mm": 225.0, "threat_tier": "HIGH_RISK", "action_directive": "HIGH RISK: Gale gusts (60.0 kts) and tidal waterlogging. Lock down glass facades, secure diesel fuel reserves for DG Set (20 kVA)." }, "geometry": { "type": "Point", "coordinates": [ 88.981, 22.469 ] } },
{ "type": "Feature", "properties": { "id": "osm_hosp_nb_04", "name": "Sandeshkhali BPHC", "highway_type": null, "infra_type": "hospital", "osm_tag": "amenity=clinic", "district": "South 24 Parganas", "state": "West Bengal", "country_left": "India", "corridor_type": null, "facility_level": "Block Primary Health Centre", "bed_capacity": 30, "backup_power": "DG Set (15 kVA)", "elevation_m": 2.4, "lanes": null, "lat": 22.365, "lon": 88.882, "state_or_division_left": "NaN", "index_right": 0, "district_name": "South 24 Parganas", "state_or_division_right": "West Bengal", "country_right": "India", "wind_zone": "core", "wind_speed_kts": 60.0, "wind_hazard_desc": "Core Hurricane / Violent Storm Zone (>48 kts)", "surge_tier": "none", "surge_depth_m": 0.0, "surge_threat_level": "NONE", "rain_tier": "extreme_rain", "rainfall_mm": 225.0, "threat_tier": "HIGH_RISK", "action_directive": "HIGH RISK: Gale gusts (60.0 kts) and tidal waterlogging. Lock down glass facades, secure diesel fuel reserves for DG Set (15 kVA)." }, "geometry": { "type": "Point", "coordinates": [ 88.882, 22.365 ] } },
{ "type": "Feature", "properties": { "id": "osm_hosp_nb_05", "name": "Minakhan Rural Hospital", "highway_type": null, "infra_type": "hospital", "osm_tag": "amenity=hospital", "district": "North 24 Parganas", "state": "West Bengal", "country_left": "India", "corridor_type": null, "facility_level": "Rural Hospital", "bed_capacity": 40, "backup_power": "DG Set (20 kVA)", "elevation_m": 3.5, "lanes": null, "lat": 22.512, "lon": 88.698, "state_or_division_left": "NaN", "index_right": 1, "district_name": "North 24 Parganas", "state_or_division_right": "West Bengal", "country_right": "India", "wind_zone": "core", "wind_speed_kts": 60.0, "wind_hazard_desc": "Core Hurricane / Violent Storm Zone (>48 kts)", "surge_tier": "none", "surge_depth_m": 0.0, "surge_threat_level": "NONE", "rain_tier": "extreme_rain", "rainfall_mm": 225.0, "threat_tier": "HIGH_RISK", "action_directive": "HIGH RISK: Gale gusts (60.0 kts) and tidal waterlogging. Lock down glass facades, secure diesel fuel reserves for DG Set (20 kVA)." }, "geometry": { "type": "Point", "coordinates": [ 88.698, 22.512 ] } },
{ "type": "Feature", "properties": { "id": "osm_hosp_nb_06", "name": "Barasat Govt Medical College & Hospital", "highway_type": null, "infra_type": "hospital", "osm_tag": "amenity=hospital", "district": "North 24 Parganas", "state": "West Bengal", "country_left": "India", "corridor_type": null, "facility_level": "Tertiary Medical College", "bed_capacity": 650, "backup_power": "Dual DG (350 kVA)", "elevation_m": 8.2, "lanes": null, "lat": 22.723, "lon": 88.482, "state_or_division_left": "NaN", "index_right": 1, "district_name": "North 24 Parganas", "state_or_division_right": "West Bengal", "country_right": "India", "wind_zone": "core", "wind_speed_kts": 60.0, "wind_hazard_desc": "Core Hurricane / Violent Storm Zone (>48 kts)", "surge_tier": "none", "surge_depth_m": 0.0, "surge_threat_level": "NONE", "rain_tier": "heavy_rain", "rainfall_mm": 145.0, "threat_tier": "HIGH_RISK", "action_directive": "HIGH RISK: Gale gusts (60.0 kts) and tidal waterlogging. Lock down glass facades, secure diesel fuel reserves for Dual DG (350 kVA)." }, "geometry": { "type": "Point", "coordinates": [ 88.482, 22.723 ] } },
{ "type": "Feature", "properties": { "id": "osm_shelt_nb_01", "name": "Hingalganj Multipurpose Cyclone Shelter", "highway_type": null, "infra_type": "shelter", "osm_tag": "amenity=shelter", "district": "Satkhira", "state": "West Bengal", "country_left": "India", "corridor_type": null, "facility_level": "Multipurpose Cyclone Shelter", "bed_capacity": 1000, "backup_power": "Solar-DG Hybrid", "elevation_m": 3.1, "lanes": null, "lat": 22.472, "lon": 88.978, "state_or_division_left": "NaN", "index_right": 5, "district_name": "Satkhira", "state_or_division_right": "Khulna", "country_right": "Bangladesh", "wind_zone": "core", "wind_speed_kts": 60.0, "wind_hazard_desc": "Core Hurricane / Violent Storm Zone (>48 kts)", "surge_tier": "none", "surge_depth_m": 0.0, "surge_threat_level": "NONE", "rain_tier": "extreme_rain", "rainfall_mm": 225.0, "threat_tier": "HIGH_RISK", "action_directive": "OPERATIONAL (HIGH CAPACITY): Shelter at capacity (1000 persons). Secure external shutters, distribute potable water tablets and dry rations." }, "geometry": { "type": "Point", "coordinates": [ 88.978, 22.472 ] } },
{ "type": "Feature", "properties": { "id": "osm_shelt_nb_02", "name": "Hasnabad Cyclone Relief Shelter", "highway_type": null, "infra_type": "shelter", "osm_tag": "amenity=shelter", "district": "North 24 Parganas", "state": "West Bengal", "country_left": "India", "corridor_type": null, "facility_level": "Dedicated Cyclone Shelter", "bed_capacity": 750, "backup_power": "Portable DG", "elevation_m": 3.9, "lanes": null, "lat": 22.579, "lon": 88.921, "state_or_division_left": "NaN", "index_right": 1, "district_name": "North 24 Parganas", "state_or_division_right": "West Bengal", "country_right": "India", "wind_zone": "core", "wind_speed_kts": 60.0, "wind_hazard_desc": "Core Hurricane / Violent Storm Zone (>48 kts)", "surge_tier": "none", "surge_depth_m": 0.0, "surge_threat_level": "NONE", "rain_tier": "extreme_rain", "rainfall_mm": 225.0, "threat_tier": "HIGH_RISK", "action_directive": "OPERATIONAL (HIGH CAPACITY): Shelter at capacity (750 persons). Secure external shutters, distribute potable water tablets and dry rations." }, "geometry": { "type": "Point", "coordinates": [ 88.921, 22.579 ] } },
{ "type": "Feature", "properties": { "id": "osm_shelt_nb_03", "name": "Sandeshkhali Nazat Cyclone Shelter", "highway_type": null, "infra_type": "shelter", "osm_tag": "amenity=shelter", "district": "North 24 Parganas", "state": "West Bengal", "country_left": "India", "corridor_type": null, "facility_level": "Dedicated Cyclone Shelter", "bed_capacity": 850, "backup_power": "Solar Battery", "elevation_m": 2.5, "lanes": null, "lat": 22.412, "lon": 88.854, "state_or_division_left": "NaN", "index_right": 1, "district_name": "North 24 Parganas", "state_or_division_right": "West Bengal", "country_right": "India", "wind_zone": "core", "wind_speed_kts": 60.0, "wind_hazard_desc": "Core Hurricane / Violent Storm Zone (>48 kts)", "surge_tier": "none", "surge_depth_m": 0.0, "surge_threat_level": "NONE", "rain_tier": "extreme_rain", "rainfall_mm": 225.0, "threat_tier": "HIGH_RISK", "action_directive": "OPERATIONAL (HIGH CAPACITY): Shelter at capacity (850 persons). Secure external shutters, distribute potable water tablets and dry rations." }, "geometry": { "type": "Point", "coordinates": [ 88.854, 22.412 ] } },
{ "type": "Feature", "properties": { "id": "osm_shelt_nb_04", "name": "Dulduli Coastal Evacuation Shelter", "highway_type": null, "infra_type": "shelter", "osm_tag": "amenity=shelter", "district": "Satkhira", "state": "West Bengal", "country_left": "India", "corridor_type": null, "facility_level": "Estuarine Cyclone Shelter", "bed_capacity": 650, "backup_power": "Solar Powered", "elevation_m": 2.3, "lanes": null, "lat": 22.441, "lon": 88.995, "state_or_division_left": "NaN", "index_right": 5, "district_name": "Satkhira", "state_or_division_right": "Khulna", "country_right": "Bangladesh", "wind_zone": "core", "wind_speed_kts": 60.0, "wind_hazard_desc": "Core Hurricane / Violent Storm Zone (>48 kts)", "surge_tier": "none", "surge_depth_m": 0.0, "surge_threat_level": "NONE", "rain_tier": "extreme_rain", "rainfall_mm": 225.0, "threat_tier": "HIGH_RISK", "action_directive": "OPERATIONAL (HIGH CAPACITY): Shelter at capacity (650 persons). Secure external shutters, distribute potable water tablets and dry rations." }, "geometry": { "type": "Point", "coordinates": [ 88.995, 22.441 ] } },
{ "type": "Feature", "properties": { "id": "osm_pwr_nb_01", "name": "132/33kV Basirhat Grid Substation", "highway_type": null, "infra_type": "power_substation", "osm_tag": "power=substation", "district": "North 24 Parganas", "state": "West Bengal", "country_left": "India", "corridor_type": null, "facility_level": "132kV Primary Grid Substation", "bed_capacity": 0, "backup_power": "Battery Bank", "elevation_m": 5.2, "lanes": null, "lat": 22.664, "lon": 88.854, "state_or_division_left": "NaN", "index_right": 1, "district_name": "North 24 Parganas", "state_or_division_right": "West Bengal", "country_right": "India", "wind_zone": "core", "wind_speed_kts": 60.0, "wind_hazard_desc": "Core Hurricane / Violent Storm Zone (>48 kts)", "surge_tier": "none", "surge_depth_m": 0.0, "surge_threat_level": "NONE", "rain_tier": "extreme_rain", "rainfall_mm": 225.0, "threat_tier": "HIGH_RISK", "action_directive": "HIGH RISK: Severe hurricane-force gusts. Monitor transmission tower line sag; stage emergency feeder restoration crews." }, "geometry": { "type": "Point", "coordinates": [ 88.854, 22.664 ] } },
{ "type": "Feature", "properties": { "id": "osm_pwr_nb_02", "name": "132/33kV Hasnabad Substation", "highway_type": null, "infra_type": "power_substation", "osm_tag": "power=substation", "district": "North 24 Parganas", "state": "West Bengal", "country_left": "India", "corridor_type": null, "facility_level": "132kV Distribution Substation", "bed_capacity": 0, "backup_power": "Battery Bank", "elevation_m": 4.0, "lanes": null, "lat": 22.586, "lon": 88.912, "state_or_division_left": "NaN", "index_right": 1, "district_name": "North 24 Parganas", "state_or_division_right": "West Bengal", "country_right": "India", "wind_zone": "core", "wind_speed_kts": 60.0, "wind_hazard_desc": "Core Hurricane / Violent Storm Zone (>48 kts)", "surge_tier": "none", "surge_depth_m": 0.0, "surge_threat_level": "NONE", "rain_tier": "extreme_rain", "rainfall_mm": 225.0, "threat_tier": "HIGH_RISK", "action_directive": "HIGH RISK: Severe hurricane-force gusts. Monitor transmission tower line sag; stage emergency feeder restoration crews." }, "geometry": { "type": "Point", "coordinates": [ 88.912, 22.586 ] } },
{ "type": "Feature", "properties": { "id": "osm_pwr_nb_03", "name": "33/11kV Hingalganj Power Substation", "highway_type": null, "infra_type": "power_substation", "osm_tag": "power=substation", "district": "Satkhira", "state": "West Bengal", "country_left": "India", "corridor_type": null, "facility_level": "33kV Border Distribution Substation", "bed_capacity": 0, "backup_power": "Battery Bank", "elevation_m": 3.0, "lanes": null, "lat": 22.475, "lon": 88.975, "state_or_division_left": "NaN", "index_right": 5, "district_name": "Satkhira", "state_or_division_right": "Khulna", "country_right": "Bangladesh", "wind_zone": "core", "wind_speed_kts": 60.0, "wind_hazard_desc": "Core Hurricane / Violent Storm Zone (>48 kts)", "surge_tier": "none", "surge_depth_m": 0.0, "surge_threat_level": "NONE", "rain_tier": "extreme_rain", "rainfall_mm": 225.0, "threat_tier": "HIGH_RISK", "action_directive": "HIGH RISK: Severe hurricane-force gusts. Monitor transmission tower line sag; stage emergency feeder restoration crews." }, "geometry": { "type": "Point", "coordinates": [ 88.975, 22.475 ] } },
{ "type": "Feature", "properties": { "id": "osm_hosp_pm_01", "name": "Digha State General Hospital", "highway_type": null, "infra_type": "hospital", "osm_tag": "amenity=hospital", "district": "Purba Medinipur", "state": "West Bengal", "country_left": "India", "corridor_type": null, "facility_level": "State General Hospital", "bed_capacity": 100, "backup_power": "DG Set (60 kVA)", "elevation_m": 3.4, "lanes": null, "lat": 21.628, "lon": 87.525, "state_or_division_left": "NaN", "index_right": 2, "district_name": "Purba Medinipur", "state_or_division_right": "West Bengal", "country_right": "India", "wind_zone": "moderate", "wind_speed_kts": 42.0, "wind_hazard_desc": "Moderate Gale-Force Zone (34 - 47 kts)", "surge_tier": "none", "surge_depth_m": 0.0, "surge_threat_level": "NONE", "rain_tier": "moderate_rain", "rainfall_mm": 75.0, "threat_tier": "MODERATE_RISK", "action_directive": "MODERATE: Monitor drainage outfalls for urban waterlogging; maintain active emergency casualty ward." }, "geometry": { "type": "Point", "coordinates": [ 87.525, 21.628 ] } },
{ "type": "Feature", "properties": { "id": "osm_hosp_pm_02", "name": "Contai (Kanthi) Sub-Divisional Hospital", "highway_type": null, "infra_type": "hospital", "osm_tag": "amenity=hospital", "district": "Purba Medinipur", "state": "West Bengal", "country_left": "India", "corridor_type": null, "facility_level": "Sub-Divisional Hospital", "bed_capacity": 250, "backup_power": "DG Set (100 kVA)", "elevation_m": 6.2, "lanes": null, "lat": 21.782, "lon": 87.754, "state_or_division_left": "NaN", "index_right": 2, "district_name": "Purba Medinipur", "state_or_division_right": "West Bengal", "country_right": "India", "wind_zone": "moderate", "wind_speed_kts": 42.0, "wind_hazard_desc": "Moderate Gale-Force Zone (34 - 47 kts)", "surge_tier": "none", "surge_depth_m": 0.0, "surge_threat_level": "NONE", "rain_tier": "heavy_rain", "rainfall_mm": 145.0, "threat_tier": "MODERATE_RISK", "action_directive": "MODERATE: Monitor drainage outfalls for urban waterlogging; maintain active emergency casualty ward." }, "geometry": { "type": "Point", "coordinates": [ 87.754, 21.782 ] } },
{ "type": "Feature", "properties": { "id": "osm_hosp_pm_03", "name": "Haldia Sub-Divisional Hospital", "highway_type": null, "infra_type": "hospital", "osm_tag": "amenity=hospital", "district": "Purba Medinipur", "state": "West Bengal", "country_left": "India", "corridor_type": null, "facility_level": "Sub-Divisional Hospital (Industrial Port)", "bed_capacity": 200, "backup_power": "Dual DG (120 kVA)", "elevation_m": 5.0, "lanes": null, "lat": 22.064, "lon": 88.062, "state_or_division_left": "NaN", "index_right": 2, "district_name": "Purba Medinipur", "state_or_division_right": "West Bengal", "country_right": "India", "wind_zone": "moderate", "wind_speed_kts": 42.0, "wind_hazard_desc": "Moderate Gale-Force Zone (34 - 47 kts)", "surge_tier": "none", "surge_depth_m": 0.0, "surge_threat_level": "NONE", "rain_tier": "heavy_rain", "rainfall_mm": 145.0, "threat_tier": "MODERATE_RISK", "action_directive": "MODERATE: Monitor drainage outfalls for urban waterlogging; maintain active emergency casualty ward." }, "geometry": { "type": "Point", "coordinates": [ 88.062, 22.064 ] } },
{ "type": "Feature", "properties": { "id": "osm_hosp_pm_04", "name": "Nandigram Super Speciality Hospital", "highway_type": null, "infra_type": "hospital", "osm_tag": "amenity=hospital", "district": "Purba Medinipur", "state": "West Bengal", "country_left": "India", "corridor_type": null, "facility_level": "Super Speciality Hospital", "bed_capacity": 300, "backup_power": "Dedicated DG (150 kVA)", "elevation_m": 4.1, "lanes": null, "lat": 22.012, "lon": 87.981, "state_or_division_left": "NaN", "index_right": 2, "district_name": "Purba Medinipur", "state_or_division_right": "West Bengal", "country_right": "India", "wind_zone": "moderate", "wind_speed_kts": 42.0, "wind_hazard_desc": "Moderate Gale-Force Zone (34 - 47 kts)", "surge_tier": "none", "surge_depth_m": 0.0, "surge_threat_level": "NONE", "rain_tier": "heavy_rain", "rainfall_mm": 145.0, "threat_tier": "MODERATE_RISK", "action_directive": "MODERATE: Monitor drainage outfalls for urban waterlogging; maintain active emergency casualty ward." }, "geometry": { "type": "Point", "coordinates": [ 87.981, 22.012 ] } },
{ "type": "Feature", "properties": { "id": "osm_hosp_pm_05", "name": "Ramnagar Block Primary Health Centre", "highway_type": null, "infra_type": "hospital", "osm_tag": "amenity=clinic", "district": "Purba Medinipur", "state": "West Bengal", "country_left": "India", "corridor_type": null, "facility_level": "Block Primary Health Centre", "bed_capacity": 30, "backup_power": "DG Set (15 kVA)", "elevation_m": 4.6, "lanes": null, "lat": 21.668, "lon": 87.562, "state_or_division_left": "NaN", "index_right": 2, "district_name": "Purba Medinipur", "state_or_division_right": "West Bengal", "country_right": "India", "wind_zone": "moderate", "wind_speed_kts": 42.0, "wind_hazard_desc": "Moderate Gale-Force Zone (34 - 47 kts)", "surge_tier": "none", "surge_depth_m": 0.0, "surge_threat_level": "NONE", "rain_tier": "moderate_rain", "rainfall_mm": 75.0, "threat_tier": "MODERATE_RISK", "action_directive": "MODERATE: Monitor drainage outfalls for urban waterlogging; maintain active emergency casualty ward." }, "geometry": { "type": "Point", "coordinates": [ 87.562, 21.668 ] } },
{ "type": "Feature", "properties": { "id": "osm_shelt_pm_01", "name": "Digha Multipurpose Cyclone Shelter (Old Digha)", "highway_type": null, "infra_type": "shelter", "osm_tag": "amenity=shelter", "district": "Purba Medinipur", "state": "West Bengal", "country_left": "India", "corridor_type": null, "facility_level": "Multipurpose Cyclone Shelter", "bed_capacity": 1500, "backup_power": "Solar-DG Hybrid", "elevation_m": 4.2, "lanes": null, "lat": 21.624, "lon": 87.518, "state_or_division_left": "NaN", "index_right": 2, "district_name": "Purba Medinipur", "state_or_division_right": "West Bengal", "country_right": "India", "wind_zone": "moderate", "wind_speed_kts": 42.0, "wind_hazard_desc": "Moderate Gale-Force Zone (34 - 47 kts)", "surge_tier": "none", "surge_depth_m": 0.0, "surge_threat_level": "NONE", "rain_tier": "moderate_rain", "rainfall_mm": 75.0, "threat_tier": "MODERATE_RISK", "action_directive": "ACTIVE: Reception ready for peripheral evacuees; verify solar emergency lighting." }, "geometry": { "type": "Point", "coordinates": [ 87.518, 21.624 ] } },
{ "type": "Feature", "properties": { "id": "osm_shelt_pm_02", "name": "New Digha Coastal Shelter Hub", "highway_type": null, "infra_type": "shelter", "osm_tag": "amenity=shelter", "district": "Purba Medinipur", "state": "West Bengal", "country_left": "India", "corridor_type": null, "facility_level": "Dedicated Coastal Shelter", "bed_capacity": 1200, "backup_power": "DG Set (25 kVA)", "elevation_m": 4.5, "lanes": null, "lat": 21.619, "lon": 87.502, "state_or_division_left": "NaN", "index_right": 2, "district_name": "Purba Medinipur", "state_or_division_right": "West Bengal", "country_right": "India", "wind_zone": "moderate", "wind_speed_kts": 42.0, "wind_hazard_desc": "Moderate Gale-Force Zone (34 - 47 kts)", "surge_tier": "none", "surge_depth_m": 0.0, "surge_threat_level": "NONE", "rain_tier": "moderate_rain", "rainfall_mm": 75.0, "threat_tier": "MODERATE_RISK", "action_directive": "ACTIVE: Reception ready for peripheral evacuees; verify solar emergency lighting." }, "geometry": { "type": "Point", "coordinates": [ 87.502, 21.619 ] } },
{ "type": "Feature", "properties": { "id": "osm_shelt_pm_03", "name": "Shankarpur Fishing Harbour Cyclone Shelter", "highway_type": null, "infra_type": "shelter", "osm_tag": "amenity=shelter", "district": "Purba Medinipur", "state": "West Bengal", "country_left": "India", "corridor_type": null, "facility_level": "Fishermen Haven Shelter", "bed_capacity": 800, "backup_power": "Solar Power", "elevation_m": 3.1, "lanes": null, "lat": 21.638, "lon": 87.575, "state_or_division_left": "NaN", "index_right": 2, "district_name": "Purba Medinipur", "state_or_division_right": "West Bengal", "country_right": "India", "wind_zone": "moderate", "wind_speed_kts": 42.0, "wind_hazard_desc": "Moderate Gale-Force Zone (34 - 47 kts)", "surge_tier": "none", "surge_depth_m": 0.0, "surge_threat_level": "NONE", "rain_tier": "moderate_rain", "rainfall_mm": 75.0, "threat_tier": "MODERATE_RISK", "action_directive": "ACTIVE: Reception ready for peripheral evacuees; verify solar emergency lighting." }, "geometry": { "type": "Point", "coordinates": [ 87.575, 21.638 ] } },
{ "type": "Feature", "properties": { "id": "osm_shelt_pm_04", "name": "Mandarmani Coastal Cyclone Shelter", "highway_type": null, "infra_type": "shelter", "osm_tag": "amenity=shelter", "district": "Purba Medinipur", "state": "West Bengal", "country_left": "India", "corridor_type": null, "facility_level": "Beachfront Shelter", "bed_capacity": 950, "backup_power": "Solar-DG Set", "elevation_m": 2.9, "lanes": null, "lat": 21.662, "lon": 87.698, "state_or_division_left": "NaN", "index_right": 2, "district_name": "Purba Medinipur", "state_or_division_right": "West Bengal", "country_right": "India", "wind_zone": "moderate", "wind_speed_kts": 42.0, "wind_hazard_desc": "Moderate Gale-Force Zone (34 - 47 kts)", "surge_tier": "none", "surge_depth_m": 0.0, "surge_threat_level": "NONE", "rain_tier": "heavy_rain", "rainfall_mm": 145.0, "threat_tier": "MODERATE_RISK", "action_directive": "ACTIVE: Reception ready for peripheral evacuees; verify solar emergency lighting." }, "geometry": { "type": "Point", "coordinates": [ 87.698, 21.662 ] } },
{ "type": "Feature", "properties": { "id": "osm_pwr_pm_01", "name": "132/33kV Digha Grid Substation", "highway_type": null, "infra_type": "power_substation", "osm_tag": "power=substation", "district": "Purba Medinipur", "state": "West Bengal", "country_left": "India", "corridor_type": null, "facility_level": "132kV Coastal Grid Substation", "bed_capacity": 0, "backup_power": "Station Battery Bank", "elevation_m": 4.8, "lanes": null, "lat": 21.634, "lon": 87.531, "state_or_division_left": "NaN", "index_right": 2, "district_name": "Purba Medinipur", "state_or_division_right": "West Bengal", "country_right": "India", "wind_zone": "moderate", "wind_speed_kts": 42.0, "wind_hazard_desc": "Moderate Gale-Force Zone (34 - 47 kts)", "surge_tier": "none", "surge_depth_m": 0.0, "surge_threat_level": "NONE", "rain_tier": "moderate_rain", "rainfall_mm": 75.0, "threat_tier": "MODERATE_RISK", "action_directive": "MODERATE: High winds and intense localized runoff; maintain standby status." }, "geometry": { "type": "Point", "coordinates": [ 87.531, 21.634 ] } },
{ "type": "Feature", "properties": { "id": "osm_pwr_pm_02", "name": "220/132kV Haldia Port Industrial Substation", "highway_type": null, "infra_type": "power_substation", "osm_tag": "power=substation", "district": "Purba Medinipur", "state": "West Bengal", "country_left": "India", "corridor_type": null, "facility_level": "220kV EHV Industrial Grid", "bed_capacity": 0, "backup_power": "Station Battery Bank", "elevation_m": 5.2, "lanes": null, "lat": 22.058, "lon": 88.056, "state_or_division_left": "NaN", "index_right": 2, "district_name": "Purba Medinipur", "state_or_division_right": "West Bengal", "country_right": "India", "wind_zone": "moderate", "wind_speed_kts": 42.0, "wind_hazard_desc": "Moderate Gale-Force Zone (34 - 47 kts)", "surge_tier": "none", "surge_depth_m": 0.0, "surge_threat_level": "NONE", "rain_tier": "heavy_rain", "rainfall_mm": 145.0, "threat_tier": "MODERATE_RISK", "action_directive": "MODERATE: High winds and intense localized runoff; maintain standby status." }, "geometry": { "type": "Point", "coordinates": [ 88.056, 22.058 ] } },
{ "type": "Feature", "properties": { "id": "osm_pwr_pm_03", "name": "132/33kV Contai Grid Substation", "highway_type": null, "infra_type": "power_substation", "osm_tag": "power=substation", "district": "Purba Medinipur", "state": "West Bengal", "country_left": "India", "corridor_type": null, "facility_level": "132kV Primary Substation", "bed_capacity": 0, "backup_power": "Station Battery Bank", "elevation_m": 6.5, "lanes": null, "lat": 21.789, "lon": 87.748, "state_or_division_left": "NaN", "index_right": 2, "district_name": "Purba Medinipur", "state_or_division_right": "West Bengal", "country_right": "India", "wind_zone": "moderate", "wind_speed_kts": 42.0, "wind_hazard_desc": "Moderate Gale-Force Zone (34 - 47 kts)", "surge_tier": "none", "surge_depth_m": 0.0, "surge_threat_level": "NONE", "rain_tier": "heavy_rain", "rainfall_mm": 145.0, "threat_tier": "MODERATE_RISK", "action_directive": "MODERATE: High winds and intense localized runoff; maintain standby status." }, "geometry": { "type": "Point", "coordinates": [ 87.748, 21.789 ] } },
{ "type": "Feature", "properties": { "id": "osm_hosp_kol_01", "name": "Medical College & Hospital Kolkata", "highway_type": null, "infra_type": "hospital", "osm_tag": "amenity=hospital", "district": "Kolkata", "state": "West Bengal", "country_left": "India", "corridor_type": null, "facility_level": "Apex Tertiary Medical College", "bed_capacity": 1500, "backup_power": "Dedicated EHV Feeder + Quad DG", "elevation_m": 6.5, "lanes": null, "lat": 22.573, "lon": 88.361, "state_or_division_left": "NaN", "index_right": 3, "district_name": "Kolkata", "state_or_division_right": "West Bengal", "country_right": "India", "wind_zone": "moderate", "wind_speed_kts": 42.0, "wind_hazard_desc": "Moderate Gale-Force Zone (34 - 47 kts)", "surge_tier": "none", "surge_depth_m": 0.0, "surge_threat_level": "NONE", "rain_tier": "heavy_rain", "rainfall_mm": 145.0, "threat_tier": "MODERATE_RISK", "action_directive": "MODERATE: Monitor drainage outfalls for urban waterlogging; maintain active emergency casualty ward." }, "geometry": { "type": "Point", "coordinates": [ 88.361, 22.573 ] } },
{ "type": "Feature", "properties": { "id": "osm_hosp_kol_02", "name": "SSKM Hospital & IPGMER", "highway_type": null, "infra_type": "hospital", "osm_tag": "amenity=hospital", "district": "Kolkata", "state": "West Bengal", "country_left": "India", "corridor_type": null, "facility_level": "Super Speciality Institute", "bed_capacity": 1700, "backup_power": "Dedicated Dual Feeders + DG", "elevation_m": 6.2, "lanes": null, "lat": 22.539, "lon": 88.344, "state_or_division_left": "NaN", "index_right": 3, "district_name": "Kolkata", "state_or_division_right": "West Bengal", "country_right": "India", "wind_zone": "moderate", "wind_speed_kts": 42.0, "wind_hazard_desc": "Moderate Gale-Force Zone (34 - 47 kts)", "surge_tier": "none", "surge_depth_m": 0.0, "surge_threat_level": "NONE", "rain_tier": "heavy_rain", "rainfall_mm": 145.0, "threat_tier": "MODERATE_RISK", "action_directive": "MODERATE: Monitor drainage outfalls for urban waterlogging; maintain active emergency casualty ward." }, "geometry": { "type": "Point", "coordinates": [ 88.344, 22.539 ] } },
{ "type": "Feature", "properties": { "id": "osm_pwr_kol_01", "name": "CESC Central Receiving Grid Substation", "highway_type": null, "infra_type": "power_substation", "osm_tag": "power=substation", "district": "Kolkata", "state": "West Bengal", "country_left": "India", "corridor_type": null, "facility_level": "Metropolitan Transmission Grid", "bed_capacity": 0, "backup_power": "Automated Grid Backup", "elevation_m": 7.0, "lanes": null, "lat": 22.562, "lon": 88.351, "state_or_division_left": "NaN", "index_right": 3, "district_name": "Kolkata", "state_or_division_right": "West Bengal", "country_right": "India", "wind_zone": "moderate", "wind_speed_kts": 42.0, "wind_hazard_desc": "Moderate Gale-Force Zone (34 - 47 kts)", "surge_tier": "none", "surge_depth_m": 0.0, "surge_threat_level": "NONE", "rain_tier": "heavy_rain", "rainfall_mm": 145.0, "threat_tier": "MODERATE_RISK", "action_directive": "MODERATE: High winds and intense localized runoff; maintain standby status." }, "geometry": { "type": "Point", "coordinates": [ 88.351, 22.562 ] } },
{ "type": "Feature", "properties": { "id": "osm_hosp_hwh_01", "name": "Howrah District Hospital", "highway_type": null, "infra_type": "hospital", "osm_tag": "amenity=hospital", "district": "Kolkata", "state": "West Bengal", "country_left": "India", "corridor_type": null, "facility_level": "District Hospital", "bed_capacity": 500, "backup_power": "Dual DG (200 kVA)", "elevation_m": 5.8, "lanes": null, "lat": 22.585, "lon": 88.324, "state_or_division_left": "NaN", "index_right": 3, "district_name": "Kolkata", "state_or_division_right": "West Bengal", "country_right": "India", "wind_zone": "moderate", "wind_speed_kts": 42.0, "wind_hazard_desc": "Moderate Gale-Force Zone (34 - 47 kts)", "surge_tier": "none", "surge_depth_m": 0.0, "surge_threat_level": "NONE", "rain_tier": "heavy_rain", "rainfall_mm": 145.0, "threat_tier": "MODERATE_RISK", "action_directive": "MODERATE: Monitor drainage outfalls for urban waterlogging; maintain active emergency casualty ward." }, "geometry": { "type": "Point", "coordinates": [ 88.324, 22.585 ] } },
{ "type": "Feature", "properties": { "id": "osm_hosp_hwh_02", "name": "Uluberia Sub-Divisional Hospital", "highway_type": null, "infra_type": "hospital", "osm_tag": "amenity=hospital", "district": "Howrah", "state": "West Bengal", "country_left": "India", "corridor_type": null, "facility_level": "Sub-Divisional Hospital", "bed_capacity": 250, "backup_power": "DG Set (80 kVA)", "elevation_m": 5.2, "lanes": null, "lat": 22.471, "lon": 88.112, "state_or_division_left": "NaN", "index_right": 4, "district_name": "Howrah", "state_or_division_right": "West Bengal", "country_right": "India", "wind_zone": "moderate", "wind_speed_kts": 42.0, "wind_hazard_desc": "Moderate Gale-Force Zone (34 - 47 kts)", "surge_tier": "none", "surge_depth_m": 0.0, "surge_threat_level": "NONE", "rain_tier": "heavy_rain", "rainfall_mm": 145.0, "threat_tier": "MODERATE_RISK", "action_directive": "MODERATE: Monitor drainage outfalls for urban waterlogging; maintain active emergency casualty ward." }, "geometry": { "type": "Point", "coordinates": [ 88.112, 22.471 ] } },
{ "type": "Feature", "properties": { "id": "osm_pwr_hwh_01", "name": "132/33kV Uluberia Grid Substation", "highway_type": null, "infra_type": "power_substation", "osm_tag": "power=substation", "district": "Howrah", "state": "West Bengal", "country_left": "India", "corridor_type": null, "facility_level": "132kV Transmission Grid", "bed_capacity": 0, "backup_power": "Battery Bank", "elevation_m": 5.4, "lanes": null, "lat": 22.476, "lon": 88.118, "state_or_division_left": "NaN", "index_right": 4, "district_name": "Howrah", "state_or_division_right": "West Bengal", "country_right": "India", "wind_zone": "moderate", "wind_speed_kts": 42.0, "wind_hazard_desc": "Moderate Gale-Force Zone (34 - 47 kts)", "surge_tier": "none", "surge_depth_m": 0.0, "surge_threat_level": "NONE", "rain_tier": "heavy_rain", "rainfall_mm": 145.0, "threat_tier": "MODERATE_RISK", "action_directive": "MODERATE: High winds and intense localized runoff; maintain standby status." }, "geometry": { "type": "Point", "coordinates": [ 88.118, 22.476 ] } },
{ "type": "Feature", "properties": { "id": "osm_hosp_bd_01", "name": "Shyamnagar Upazila Health Complex", "highway_type": null, "infra_type": "hospital", "osm_tag": "amenity=hospital", "district": "Satkhira", "state": "NaN", "country_left": "Bangladesh", "corridor_type": null, "facility_level": "Upazila Health Complex", "bed_capacity": 50, "backup_power": "DG Set (25 kVA)", "elevation_m": 2.8, "lanes": null, "lat": 22.332, "lon": 89.102, "state_or_division_left": "Khulna", "index_right": 5, "district_name": "Satkhira", "state_or_division_right": "Khulna", "country_right": "Bangladesh", "wind_zone": "core", "wind_speed_kts": 60.0, "wind_hazard_desc": "Core Hurricane / Violent Storm Zone (>48 kts)", "surge_tier": "moderate", "surge_depth_m": 1.0, "surge_threat_level": "MODERATE (0.5 - 1.5m Waterlogging)", "rain_tier": "extreme_rain", "rainfall_mm": 225.0, "threat_tier": "HIGH_RISK", "action_directive": "HIGH RISK: Gale gusts (60.0 kts) and tidal waterlogging. Lock down glass facades, secure diesel fuel reserves for DG Set (25 kVA)." }, "geometry": { "type": "Point", "coordinates": [ 89.102, 22.332 ] } },
{ "type": "Feature", "properties": { "id": "osm_shelt_bd_01", "name": "Gabura Multipurpose Cyclone Shelter", "highway_type": null, "infra_type": "shelter", "osm_tag": "amenity=shelter", "district": "Satkhira", "state": "NaN", "country_left": "Bangladesh", "corridor_type": null, "facility_level": "Multipurpose Cyclone Shelter", "bed_capacity": 1500, "backup_power": "Solar-Battery System", "elevation_m": 2.2, "lanes": null, "lat": 22.254, "lon": 89.241, "state_or_division_left": "Khulna", "index_right": 5, "district_name": "Satkhira", "state_or_division_right": "Khulna", "country_right": "Bangladesh", "wind_zone": "core", "wind_speed_kts": 60.0, "wind_hazard_desc": "Core Hurricane / Violent Storm Zone (>48 kts)", "surge_tier": "moderate", "surge_depth_m": 1.0, "surge_threat_level": "MODERATE (0.5 - 1.5m Waterlogging)", "rain_tier": "extreme_rain", "rainfall_mm": 225.0, "threat_tier": "HIGH_RISK", "action_directive": "OPERATIONAL (HIGH CAPACITY): Shelter at capacity (1500 persons). Secure external shutters, distribute potable water tablets and dry rations." }, "geometry": { "type": "Point", "coordinates": [ 89.241, 22.254 ] } },
{ "type": "Feature", "properties": { "id": "osm_shelt_bd_02", "name": "Padmapukur Coastal Cyclone Shelter", "highway_type": null, "infra_type": "shelter", "osm_tag": "amenity=shelter", "district": "Satkhira", "state": "NaN", "country_left": "Bangladesh", "corridor_type": null, "facility_level": "Dedicated Cyclone Shelter", "bed_capacity": 1000, "backup_power": "Solar Power", "elevation_m": 2.1, "lanes": null, "lat": 22.281, "lon": 89.265, "state_or_division_left": "Khulna", "index_right": 5, "district_name": "Satkhira", "state_or_division_right": "Khulna", "country_right": "Bangladesh", "wind_zone": "core", "wind_speed_kts": 60.0, "wind_hazard_desc": "Core Hurricane / Violent Storm Zone (>48 kts)", "surge_tier": "moderate", "surge_depth_m": 1.0, "surge_threat_level": "MODERATE (0.5 - 1.5m Waterlogging)", "rain_tier": "extreme_rain", "rainfall_mm": 225.0, "threat_tier": "HIGH_RISK", "action_directive": "OPERATIONAL (HIGH CAPACITY): Shelter at capacity (1000 persons). Secure external shutters, distribute potable water tablets and dry rations." }, "geometry": { "type": "Point", "coordinates": [ 89.265, 22.281 ] } },
{ "type": "Feature", "properties": { "id": "osm_pwr_bd_01", "name": "33/11kV Shyamnagar Substation (BREB)", "highway_type": null, "infra_type": "power_substation", "osm_tag": "power=substation", "district": "Satkhira", "state": "NaN", "country_left": "Bangladesh", "corridor_type": null, "facility_level": "33kV Rural Electrification Substation", "bed_capacity": 0, "backup_power": "Battery Bank", "elevation_m": 3.0, "lanes": null, "lat": 22.335, "lon": 89.098, "state_or_division_left": "Khulna", "index_right": 5, "district_name": "Satkhira", "state_or_division_right": "Khulna", "country_right": "Bangladesh", "wind_zone": "core", "wind_speed_kts": 60.0, "wind_hazard_desc": "Core Hurricane / Violent Storm Zone (>48 kts)", "surge_tier": "moderate", "surge_depth_m": 1.0, "surge_threat_level": "MODERATE (0.5 - 1.5m Waterlogging)", "rain_tier": "extreme_rain", "rainfall_mm": 225.0, "threat_tier": "HIGH_RISK", "action_directive": "HIGH RISK: Severe hurricane-force gusts. Monitor transmission tower line sag; stage emergency feeder restoration crews." }, "geometry": { "type": "Point", "coordinates": [ 89.098, 22.335 ] } },
{ "type": "Feature", "properties": { "id": "osm_hosp_bd_02", "name": "Dacope Upazila Health Complex (Chalna)", "highway_type": null, "infra_type": "hospital", "osm_tag": "amenity=hospital", "district": "Khulna", "state": "NaN", "country_left": "Bangladesh", "corridor_type": null, "facility_level": "Upazila Health Complex", "bed_capacity": 50, "backup_power": "DG Set (20 kVA)", "elevation_m": 2.6, "lanes": null, "lat": 22.612, "lon": 89.521, "state_or_division_left": "Khulna", "index_right": 6, "district_name": "Khulna", "state_or_division_right": "Khulna", "country_right": "Bangladesh", "wind_zone": "core", "wind_speed_kts": 60.0, "wind_hazard_desc": "Core Hurricane / Violent Storm Zone (>48 kts)", "surge_tier": "none", "surge_depth_m": 0.0, "surge_threat_level": "NONE", "rain_tier": "extreme_rain", "rainfall_mm": 225.0, "threat_tier": "HIGH_RISK", "action_directive": "HIGH RISK: Gale gusts (60.0 kts) and tidal waterlogging. Lock down glass facades, secure diesel fuel reserves for DG Set (20 kVA)." }, "geometry": { "type": "Point", "coordinates": [ 89.521, 22.612 ] } },
{ "type": "Feature", "properties": { "id": "osm_hosp_bd_03", "name": "Koyra Upazila Health Complex", "highway_type": null, "infra_type": "hospital", "osm_tag": "amenity=hospital", "district": "Satkhira", "state": "NaN", "country_left": "Bangladesh", "corridor_type": null, "facility_level": "Upazila Health Complex", "bed_capacity": 50, "backup_power": "DG Set (20 kVA)", "elevation_m": 2.4, "lanes": null, "lat": 22.342, "lon": 89.298, "state_or_division_left": "Khulna", "index_right": 5, "district_name": "Satkhira", "state_or_division_right": "Khulna", "country_right": "Bangladesh", "wind_zone": "core", "wind_speed_kts": 60.0, "wind_hazard_desc": "Core Hurricane / Violent Storm Zone (>48 kts)", "surge_tier": "none", "surge_depth_m": 0.0, "surge_threat_level": "NONE", "rain_tier": "extreme_rain", "rainfall_mm": 225.0, "threat_tier": "HIGH_RISK", "action_directive": "HIGH RISK: Gale gusts (60.0 kts) and tidal waterlogging. Lock down glass facades, secure diesel fuel reserves for DG Set (20 kVA)." }, "geometry": { "type": "Point", "coordinates": [ 89.298, 22.342 ] } },
{ "type": "Feature", "properties": { "id": "osm_shelt_bd_03", "name": "Koyra Coastal Cyclone Shelter 01", "highway_type": null, "infra_type": "shelter", "osm_tag": "amenity=shelter", "district": "Satkhira", "state": "NaN", "country_left": "Bangladesh", "corridor_type": null, "facility_level": "Multipurpose Cyclone Shelter", "bed_capacity": 1200, "backup_power": "Solar-DG Hybrid", "elevation_m": 2.5, "lanes": null, "lat": 22.338, "lon": 89.305, "state_or_division_left": "Khulna", "index_right": 5, "district_name": "Satkhira", "state_or_division_right": "Khulna", "country_right": "Bangladesh", "wind_zone": "core", "wind_speed_kts": 60.0, "wind_hazard_desc": "Core Hurricane / Violent Storm Zone (>48 kts)", "surge_tier": "none", "surge_depth_m": 0.0, "surge_threat_level": "NONE", "rain_tier": "extreme_rain", "rainfall_mm": 225.0, "threat_tier": "HIGH_RISK", "action_directive": "OPERATIONAL (HIGH CAPACITY): Shelter at capacity (1200 persons). Secure external shutters, distribute potable water tablets and dry rations." }, "geometry": { "type": "Point", "coordinates": [ 89.305, 22.338 ] } },
{ "type": "Feature", "properties": { "id": "osm_pwr_bd_02", "name": "132/33kV Khulna South Grid Substation", "highway_type": null, "infra_type": "power_substation", "osm_tag": "power=substation", "district": "Khulna", "state": "NaN", "country_left": "Bangladesh", "corridor_type": null, "facility_level": "132kV Primary Transmission Substation", "bed_capacity": 0, "backup_power": "Station Battery Bank", "elevation_m": 4.5, "lanes": null, "lat": 22.812, "lon": 89.535, "state_or_division_left": "Khulna", "index_right": 6, "district_name": "Khulna", "state_or_division_right": "Khulna", "country_right": "Bangladesh", "wind_zone": "core", "wind_speed_kts": 60.0, "wind_hazard_desc": "Core Hurricane / Violent Storm Zone (>48 kts)", "surge_tier": "none", "surge_depth_m": 0.0, "surge_threat_level": "NONE", "rain_tier": "extreme_rain", "rainfall_mm": 225.0, "threat_tier": "HIGH_RISK", "action_directive": "HIGH RISK: Severe hurricane-force gusts. Monitor transmission tower line sag; stage emergency feeder restoration crews." }, "geometry": { "type": "Point", "coordinates": [ 89.535, 22.812 ] } },
{ "type": "Feature", "properties": { "id": "osm_hosp_bd_04", "name": "Mongla Upazila Health Complex", "highway_type": null, "infra_type": "hospital", "osm_tag": "amenity=hospital", "district": "Khulna", "state": "NaN", "country_left": "Bangladesh", "corridor_type": null, "facility_level": "Upazila Health Complex", "bed_capacity": 50, "backup_power": "DG Set (30 kVA)", "elevation_m": 2.9, "lanes": null, "lat": 22.488, "lon": 89.608, "state_or_division_left": "Khulna", "index_right": 6, "district_name": "Khulna", "state_or_division_right": "Khulna", "country_right": "Bangladesh", "wind_zone": "moderate", "wind_speed_kts": 42.0, "wind_hazard_desc": "Moderate Gale-Force Zone (34 - 47 kts)", "surge_tier": "none", "surge_depth_m": 0.0, "surge_threat_level": "NONE", "rain_tier": "extreme_rain", "rainfall_mm": 225.0, "threat_tier": "MODERATE_RISK", "action_directive": "MODERATE: Monitor drainage outfalls for urban waterlogging; maintain active emergency casualty ward." }, "geometry": { "type": "Point", "coordinates": [ 89.608, 22.488 ] } },
{ "type": "Feature", "properties": { "id": "osm_shelt_bd_04", "name": "Sharankhola Coastal Cyclone Shelter", "highway_type": null, "infra_type": "shelter", "osm_tag": "amenity=shelter", "district": "Bagerhat", "state": "NaN", "country_left": "Bangladesh", "corridor_type": null, "facility_level": "Multipurpose Cyclone Shelter", "bed_capacity": 1400, "backup_power": "Solar Power", "elevation_m": 2.3, "lanes": null, "lat": 22.308, "lon": 89.795, "state_or_division_left": "Khulna", "index_right": 7, "district_name": "Bagerhat", "state_or_division_right": "Khulna", "country_right": "Bangladesh", "wind_zone": "moderate", "wind_speed_kts": 42.0, "wind_hazard_desc": "Moderate Gale-Force Zone (34 - 47 kts)", "surge_tier": "none", "surge_depth_m": 0.0, "surge_threat_level": "NONE", "rain_tier": "extreme_rain", "rainfall_mm": 225.0, "threat_tier": "MODERATE_RISK", "action_directive": "ACTIVE: Reception ready for peripheral evacuees; verify solar emergency lighting." }, "geometry": { "type": "Point", "coordinates": [ 89.795, 22.308 ] } },
{ "type": "Feature", "properties": { "id": "osm_pwr_bd_03", "name": "132/33kV Mongla Port Grid Substation", "highway_type": null, "infra_type": "power_substation", "osm_tag": "power=substation", "district": "Khulna", "state": "NaN", "country_left": "Bangladesh", "corridor_type": null, "facility_level": "132kV Port Industrial Grid", "bed_capacity": 0, "backup_power": "Battery Bank", "elevation_m": 3.8, "lanes": null, "lat": 22.492, "lon": 89.615, "state_or_division_left": "Khulna", "index_right": 6, "district_name": "Khulna", "state_or_division_right": "Khulna", "country_right": "Bangladesh", "wind_zone": "moderate", "wind_speed_kts": 42.0, "wind_hazard_desc": "Moderate Gale-Force Zone (34 - 47 kts)", "surge_tier": "none", "surge_depth_m": 0.0, "surge_threat_level": "NONE", "rain_tier": "extreme_rain", "rainfall_mm": 225.0, "threat_tier": "MODERATE_RISK", "action_directive": "MODERATE: High winds and intense localized runoff; maintain standby status." }, "geometry": { "type": "Point", "coordinates": [ 89.615, 22.492 ] } },
{ "type": "Feature", "properties": { "id": "osm_hosp_bd_05", "name": "Khepupara (Kalapara) Upazila Health Complex", "highway_type": null, "infra_type": "hospital", "osm_tag": "amenity=hospital", "district": "Patuakhali", "state": "NaN", "country_left": "Bangladesh", "corridor_type": null, "facility_level": "Upazila Health Complex (Landfall Core)", "bed_capacity": 50, "backup_power": "DG Set (30 kVA)", "elevation_m": 2.5, "lanes": null, "lat": 21.984, "lon": 90.228, "state_or_division_left": "Barisal", "index_right": 8, "district_name": "Patuakhali", "state_or_division_right": "Barisal", "country_right": "Bangladesh", "wind_zone": "moderate", "wind_speed_kts": 42.0, "wind_hazard_desc": "Moderate Gale-Force Zone (34 - 47 kts)", "surge_tier": "none", "surge_depth_m": 0.0, "surge_threat_level": "NONE", "rain_tier": "heavy_rain", "rainfall_mm": 145.0, "threat_tier": "MODERATE_RISK", "action_directive": "MODERATE: Monitor drainage outfalls for urban waterlogging; maintain active emergency casualty ward." }, "geometry": { "type": "Point", "coordinates": [ 90.228, 21.984 ] } },
{ "type": "Feature", "properties": { "id": "osm_hosp_bd_06", "name": "Kuakata 20-Bed Hospital", "highway_type": null, "infra_type": "hospital", "osm_tag": "amenity=hospital", "district": "Patuakhali", "state": "NaN", "country_left": "Bangladesh", "corridor_type": null, "facility_level": "Coastal Hospital", "bed_capacity": 20, "backup_power": "Solar-Battery", "elevation_m": 2.0, "lanes": null, "lat": 21.821, "lon": 90.125, "state_or_division_left": "Barisal", "index_right": 8, "district_name": "Patuakhali", "state_or_division_right": "Barisal", "country_right": "Bangladesh", "wind_zone": "moderate", "wind_speed_kts": 42.0, "wind_hazard_desc": "Moderate Gale-Force Zone (34 - 47 kts)", "surge_tier": "none", "surge_depth_m": 0.0, "surge_threat_level": "NONE", "rain_tier": "heavy_rain", "rainfall_mm": 145.0, "threat_tier": "MODERATE_RISK", "action_directive": "MODERATE: Monitor drainage outfalls for urban waterlogging; maintain active emergency casualty ward." }, "geometry": { "type": "Point", "coordinates": [ 90.125, 21.821 ] } },
{ "type": "Feature", "properties": { "id": "osm_shelt_bd_05", "name": "Khepupara Multipurpose Cyclone Shelter", "highway_type": null, "infra_type": "shelter", "osm_tag": "amenity=shelter", "district": "Patuakhali", "state": "NaN", "country_left": "Bangladesh", "corridor_type": null, "facility_level": "Multipurpose Cyclone Shelter", "bed_capacity": 1600, "backup_power": "Solar-DG Hybrid", "elevation_m": 2.7, "lanes": null, "lat": 21.981, "lon": 90.231, "state_or_division_left": "Barisal", "index_right": 8, "district_name": "Patuakhali", "state_or_division_right": "Barisal", "country_right": "Bangladesh", "wind_zone": "moderate", "wind_speed_kts": 42.0, "wind_hazard_desc": "Moderate Gale-Force Zone (34 - 47 kts)", "surge_tier": "none", "surge_depth_m": 0.0, "surge_threat_level": "NONE", "rain_tier": "heavy_rain", "rainfall_mm": 145.0, "threat_tier": "MODERATE_RISK", "action_directive": "ACTIVE: Reception ready for peripheral evacuees; verify solar emergency lighting." }, "geometry": { "type": "Point", "coordinates": [ 90.231, 21.981 ] } },
{ "type": "Feature", "properties": { "id": "osm_shelt_bd_06", "name": "Kuakata Coastal Cyclone Shelter 01", "highway_type": null, "infra_type": "shelter", "osm_tag": "amenity=shelter", "district": "Patuakhali", "state": "NaN", "country_left": "Bangladesh", "corridor_type": null, "facility_level": "Beachfront Cyclone Shelter", "bed_capacity": 1300, "backup_power": "Solar Power", "elevation_m": 2.4, "lanes": null, "lat": 21.818, "lon": 90.122, "state_or_division_left": "Barisal", "index_right": 8, "district_name": "Patuakhali", "state_or_division_right": "Barisal", "country_right": "Bangladesh", "wind_zone": "moderate", "wind_speed_kts": 42.0, "wind_hazard_desc": "Moderate Gale-Force Zone (34 - 47 kts)", "surge_tier": "none", "surge_depth_m": 0.0, "surge_threat_level": "NONE", "rain_tier": "heavy_rain", "rainfall_mm": 145.0, "threat_tier": "MODERATE_RISK", "action_directive": "ACTIVE: Reception ready for peripheral evacuees; verify solar emergency lighting." }, "geometry": { "type": "Point", "coordinates": [ 90.122, 21.818 ] } },
{ "type": "Feature", "properties": { "id": "osm_pwr_bd_04", "name": "132/33kV Payra/Kalapara Grid Substation", "highway_type": null, "infra_type": "power_substation", "osm_tag": "power=substation", "district": "Patuakhali", "state": "NaN", "country_left": "Bangladesh", "corridor_type": null, "facility_level": "132kV Transmission Grid", "bed_capacity": 0, "backup_power": "Battery Bank", "elevation_m": 3.2, "lanes": null, "lat": 21.992, "lon": 90.235, "state_or_division_left": "Barisal", "index_right": 8, "district_name": "Patuakhali", "state_or_division_right": "Barisal", "country_right": "Bangladesh", "wind_zone": "moderate", "wind_speed_kts": 42.0, "wind_hazard_desc": "Moderate Gale-Force Zone (34 - 47 kts)", "surge_tier": "none", "surge_depth_m": 0.0, "surge_threat_level": "NONE", "rain_tier": "heavy_rain", "rainfall_mm": 145.0, "threat_tier": "MODERATE_RISK", "action_directive": "MODERATE: High winds and intense localized runoff; maintain standby status." }, "geometry": { "type": "Point", "coordinates": [ 90.235, 21.992 ] } },
{ "type": "Feature", "properties": { "id": "osm_hosp_bd_07", "name": "Patharghata Upazila Health Complex", "highway_type": null, "infra_type": "hospital", "osm_tag": "amenity=hospital", "district": "Barguna", "state": "NaN", "country_left": "Bangladesh", "corridor_type": null, "facility_level": "Upazila Health Complex", "bed_capacity": 50, "backup_power": "DG Set (20 kVA)", "elevation_m": 2.3, "lanes": null, "lat": 22.048, "lon": 89.972, "state_or_division_left": "Barisal", "index_right": 9, "district_name": "Barguna", "state_or_division_right": "Barisal", "country_right": "Bangladesh", "wind_zone": "moderate", "wind_speed_kts": 42.0, "wind_hazard_desc": "Moderate Gale-Force Zone (34 - 47 kts)", "surge_tier": "none", "surge_depth_m": 0.0, "surge_threat_level": "NONE", "rain_tier": "extreme_rain", "rainfall_mm": 225.0, "threat_tier": "MODERATE_RISK", "action_directive": "MODERATE: Monitor drainage outfalls for urban waterlogging; maintain active emergency casualty ward." }, "geometry": { "type": "Point", "coordinates": [ 89.972, 22.048 ] } },
{ "type": "Feature", "properties": { "id": "osm_shelt_bd_07", "name": "Patharghata Coastal Shelter", "highway_type": null, "infra_type": "shelter", "osm_tag": "amenity=shelter", "district": "Barguna", "state": "NaN", "country_left": "Bangladesh", "corridor_type": null, "facility_level": "Dedicated Cyclone Shelter", "bed_capacity": 1100, "backup_power": "Solar Power", "elevation_m": 2.2, "lanes": null, "lat": 22.042, "lon": 89.976, "state_or_division_left": "Barisal", "index_right": 9, "district_name": "Barguna", "state_or_division_right": "Barisal", "country_right": "Bangladesh", "wind_zone": "moderate", "wind_speed_kts": 42.0, "wind_hazard_desc": "Moderate Gale-Force Zone (34 - 47 kts)", "surge_tier": "none", "surge_depth_m": 0.0, "surge_threat_level": "NONE", "rain_tier": "extreme_rain", "rainfall_mm": 225.0, "threat_tier": "MODERATE_RISK", "action_directive": "ACTIVE: Reception ready for peripheral evacuees; verify solar emergency lighting." }, "geometry": { "type": "Point", "coordinates": [ 89.976, 22.042 ] } },
{ "type": "Feature", "properties": { "id": "osm_pwr_bd_05", "name": "33/11kV Patharghata Substation", "highway_type": null, "infra_type": "power_substation", "osm_tag": "power=substation", "district": "Barguna", "state": "NaN", "country_left": "Bangladesh", "corridor_type": null, "facility_level": "33kV Rural Substation", "bed_capacity": 0, "backup_power": "Battery Bank", "elevation_m": 2.8, "lanes": null, "lat": 22.051, "lon": 89.968, "state_or_division_left": "Barisal", "index_right": 9, "district_name": "Barguna", "state_or_division_right": "Barisal", "country_right": "Bangladesh", "wind_zone": "moderate", "wind_speed_kts": 42.0, "wind_hazard_desc": "Moderate Gale-Force Zone (34 - 47 kts)", "surge_tier": "none", "surge_depth_m": 0.0, "surge_threat_level": "NONE", "rain_tier": "extreme_rain", "rainfall_mm": 225.0, "threat_tier": "MODERATE_RISK", "action_directive": "MODERATE: High winds and intense localized runoff; maintain standby status." }, "geometry": { "type": "Point", "coordinates": [ 89.968, 22.051 ] } }
]
}
