{
"type": "FeatureCollection",
"name": "remal_infrastructure_roads",
"crs": { "type": "name", "properties": { "name": "urn:ogc:def:crs:OGC:1.3:CRS84" } },
"features": [
{ "type": "Feature", "properties": { "id": "osm_road_nh12", "name": "NH-12 (Kolkata - Diamond Harbour - Kakdwip - Bakkhali)", "highway_type": "trunk", "infra_type": null, "osm_tag": "highway=trunk", "district": "South 24 Parganas", "state": "West Bengal", "country": "India", "corridor_type": "Primary Coastal Evacuation & Relief Spine", "facility_level": null, "bed_capacity": null, "backup_power": null, "elevation_m": null, "lanes": 2.0, "lat": null, "lon": null, "state_or_division": "NaN", "total_length_km": 106.9, "submerged_length_km": 0.0, "core_wind_length_km": 0.0, "corridor_status": "PASSABLE (MONITORING)", "navigation_directive": "ROUTE PASSABLE: Maintain convoy speed under 40 km/h; monitor tidal canal overflow." }, "geometry": { "type": "LineString", "coordinates": [ [ 88.33, 22.5 ], [ 88.26, 22.35 ], [ 88.198, 22.193 ], [ 88.195, 22.08 ], [ 88.191, 21.876 ], [ 88.232, 21.768 ], [ 88.258, 21.65 ], [ 88.267, 21.568 ] ] } },
{ "type": "Feature", "properties": { "id": "osm_road_sh3", "name": "SH-3 (Basanti Highway: Kolkata - Canning - Basanti)", "highway_type": "primary", "infra_type": null, "osm_tag": "highway=primary", "district": "South 24 Parganas", "state": "West Bengal", "country": "India", "corridor_type": "Sundarbans Gateway Highway", "facility_level": null, "bed_capacity": null, "backup_power": null, "elevation_m": null, "lanes": 2.0, "lat": null, "lon": null, "state_or_division": "NaN", "total_length_km": 58.1, "submerged_length_km": 20.6, "core_wind_length_km": 58.1, "corridor_status": "CUT-OFF / SUBMERGED", "navigation_directive": "ROAD IMPASSABLE: 20.6 km submerged under saltwater surge. Deploy NDRF BAUT (Boat Assault Unit); reroute via inland elevated state highway." }, "geometry": { "type": "LineString", "coordinates": [ [ 88.42, 22.52 ], [ 88.54, 22.45 ], [ 88.662, 22.315 ], [ 88.718, 22.197 ], [ 88.805, 22.164 ] ] } },
{ "type": "Feature", "properties": { "id": "osm_road_sagar", "name": "Sagar Island Central Spine Road (Kachuberia - Rudranagar - Gangasagar)", "highway_type": "secondary", "infra_type": null, "osm_tag": "highway=secondary", "district": "South 24 Parganas", "state": "West Bengal", "country": "India", "corridor_type": "Island Evacuation Lifeline", "facility_level": null, "bed_capacity": null, "backup_power": null, "elevation_m": null, "lanes": 1.0, "lat": null, "lon": null, "state_or_division": "NaN", "total_length_km": 23.5, "submerged_length_km": 0.0, "core_wind_length_km": 0.0, "corridor_status": "PASSABLE (MONITORING)", "navigation_directive": "ROUTE PASSABLE: Maintain convoy speed under 40 km/h; monitor tidal canal overflow." }, "geometry": { "type": "LineString", "coordinates": [ [ 88.13, 21.85 ], [ 88.09, 21.76 ], [ 88.082, 21.688 ], [ 88.064, 21.649 ] ] } },
{ "type": "Feature", "properties": { "id": "osm_road_nh116b", "name": "NH-116B (Contai - Ramnagar - Digha Coastal Highway)", "highway_type": "trunk", "infra_type": null, "osm_tag": "highway=trunk", "district": "Purba Medinipur", "state": "West Bengal", "country": "India", "corridor_type": "East Coast Marine Highway", "facility_level": null, "bed_capacity": null, "backup_power": null, "elevation_m": null, "lanes": 2.0, "lat": null, "lon": null, "state_or_division": "NaN", "total_length_km": 84.2, "submerged_length_km": 0.0, "core_wind_length_km": 0.0, "corridor_status": "PASSABLE (MONITORING)", "navigation_directive": "ROUTE PASSABLE: Maintain convoy speed under 40 km/h; monitor tidal canal overflow." }, "geometry": { "type": "LineString", "coordinates": [ [ 87.92, 22.25 ], [ 87.82, 22.05 ], [ 87.754, 21.782 ], [ 87.562, 21.668 ], [ 87.525, 21.628 ] ] } },
{ "type": "Feature", "properties": { "id": "osm_road_nh116", "name": "NH-116 (Tamluk - Haldia Port Highway)", "highway_type": "trunk", "infra_type": null, "osm_tag": "highway=trunk", "district": "Purba Medinipur", "state": "West Bengal", "country": "India", "corridor_type": "Port Evacuation Corridor", "facility_level": null, "bed_capacity": null, "backup_power": null, "elevation_m": null, "lanes": 4.0, "lat": null, "lon": null, "state_or_division": "NaN", "total_length_km": 36.2, "submerged_length_km": 0.0, "core_wind_length_km": 0.0, "corridor_status": "PASSABLE (MONITORING)", "navigation_directive": "ROUTE PASSABLE: Maintain convoy speed under 40 km/h; monitor tidal canal overflow." }, "geometry": { "type": "LineString", "coordinates": [ [ 87.95, 22.35 ], [ 87.922, 22.301 ], [ 87.98, 22.18 ], [ 88.062, 22.064 ] ] } },
{ "type": "Feature", "properties": { "id": "osm_road_sh2", "name": "SH-2 (Barasat - Basirhat - Hasnabad - Hingalganj)", "highway_type": "primary", "infra_type": null, "osm_tag": "highway=primary", "district": "North 24 Parganas", "state": "West Bengal", "country": "India", "corridor_type": "North Sundarbans Border Corridor", "facility_level": null, "bed_capacity": null, "backup_power": null, "elevation_m": null, "lanes": 2.0, "lat": null, "lon": null, "state_or_division": "NaN", "total_length_km": 64.1, "submerged_length_km": 0.0, "core_wind_length_km": 64.1, "corridor_status": "HIGH RISK (BLOCKED BY DEBRIS)", "navigation_directive": "SEVERE OBSTRUCTION: 64.1 km exposed to >48 kts wind. High likelihood of uprooted trees and fallen power lines. Clear with bulldozer before ambulance convoys." }, "geometry": { "type": "LineString", "coordinates": [ [ 88.482, 22.723 ], [ 88.65, 22.68 ], [ 88.861, 22.658 ], [ 88.918, 22.582 ], [ 88.981, 22.469 ] ] } },
{ "type": "Feature", "properties": { "id": "osm_road_n8", "name": "N8 Highway (Patuakhali - Khepupara/Kalapara - Kuakata)", "highway_type": "trunk", "infra_type": null, "osm_tag": "highway=trunk", "district": "Patuakhali", "state": "NaN", "country": "Bangladesh", "corridor_type": "Landfall Epicenter Highway Spine", "facility_level": null, "bed_capacity": null, "backup_power": null, "elevation_m": null, "lanes": 2.0, "lat": null, "lon": null, "state_or_division": "Barisal", "total_length_km": 63.8, "submerged_length_km": 0.0, "core_wind_length_km": 0.0, "corridor_status": "PASSABLE (MONITORING)", "navigation_directive": "ROUTE PASSABLE: Maintain convoy speed under 40 km/h; monitor tidal canal overflow." }, "geometry": { "type": "LineString", "coordinates": [ [ 90.332, 22.358 ], [ 90.28, 22.15 ], [ 90.228, 21.984 ], [ 90.125, 21.821 ] ] } },
{ "type": "Feature", "properties": { "id": "osm_road_r760", "name": "R760 Highway (Satkhira - Kaliganj - Shyamnagar)", "highway_type": "primary", "infra_type": null, "osm_tag": "highway=primary", "district": "Satkhira", "state": "NaN", "country": "Bangladesh", "corridor_type": "Southwest Coastal Evacuation Route", "facility_level": null, "bed_capacity": null, "backup_power": null, "elevation_m": null, "lanes": 2.0, "lat": null, "lon": null, "state_or_division": "Khulna", "total_length_km": 61.1, "submerged_length_km": 19.0, "core_wind_length_km": 61.1, "corridor_status": "CUT-OFF / SUBMERGED", "navigation_directive": "ROAD IMPASSABLE: 19.0 km submerged under saltwater surge. Deploy NDRF BAUT (Boat Assault Unit); reroute via inland elevated state highway." }, "geometry": { "type": "LineString", "coordinates": [ [ 89.072, 22.718 ], [ 89.041, 22.451 ], [ 89.102, 22.332 ], [ 89.241, 22.254 ] ] } },
{ "type": "Feature", "properties": { "id": "osm_road_n709", "name": "N709 Highway (Khulna - Mongla Port)", "highway_type": "trunk", "infra_type": null, "osm_tag": "highway=trunk", "district": "Bagerhat", "state": "NaN", "country": "Bangladesh", "corridor_type": "Mongla Port Corridor", "facility_level": null, "bed_capacity": null, "backup_power": null, "elevation_m": null, "lanes": 2.0, "lat": null, "lon": null, "state_or_division": "Khulna", "total_length_km": 38.0, "submerged_length_km": 0.0, "core_wind_length_km": 35.1, "corridor_status": "HIGH RISK (BLOCKED BY DEBRIS)", "navigation_directive": "SEVERE OBSTRUCTION: 35.1 km exposed to >48 kts wind. High likelihood of uprooted trees and fallen power lines. Clear with bulldozer before ambulance convoys." }, "geometry": { "type": "LineString", "coordinates": [ [ 89.542, 22.825 ], [ 89.58, 22.65 ], [ 89.608, 22.488 ] ] } },
{ "type": "Feature", "properties": { "id": "osm_road_r880", "name": "R880 Highway (Amtali - Barguna - Patharghata)", "highway_type": "primary", "infra_type": null, "osm_tag": "highway=primary", "district": "Barguna", "state": "NaN", "country": "Bangladesh", "corridor_type": "Bishkhali Estuary Highway", "facility_level": null, "bed_capacity": null, "backup_power": null, "elevation_m": null, "lanes": 2.0, "lat": null, "lon": null, "state_or_division": "Barisal", "total_length_km": 31.3, "submerged_length_km": 0.0, "core_wind_length_km": 0.0, "corridor_status": "PASSABLE (MONITORING)", "navigation_directive": "ROUTE PASSABLE: Maintain convoy speed under 40 km/h; monitor tidal canal overflow." }, "geometry": { "type": "LineString", "coordinates": [ [ 90.231, 22.132 ], [ 90.124, 22.158 ], [ 89.972, 22.048 ] ] } }
]
}
