{
"type": "FeatureCollection",
"name": "remal_track",
"crs": { "type": "name", "properties": { "name": "urn:ogc:def:crs:OGC:1.3:CRS84" } },
"features": [
{ "type": "Feature", "properties": { "time": "2024-05-23T12:00:00", "lat": 13.6, "lon": 86.6, "wind_kts": 15.0, "pressure_mb": 1000.0, "category": "Depression (<28 kts)" }, "geometry": { "type": "Point", "coordinates": [ 86.6, 13.6 ] } },
{ "type": "Feature", "properties": { "time": "2024-05-23T15:00:00", "lat": 13.9, "lon": 87.2, "wind_kts": 15.0, "pressure_mb": 999.0, "category": "Depression (<28 kts)" }, "geometry": { "type": "Point", "coordinates": [ 87.2, 13.9 ] } },
{ "type": "Feature", "properties": { "time": "2024-05-23T18:00:00", "lat": 14.3, "lon": 87.7, "wind_kts": 15.0, "pressure_mb": 998.0, "category": "Depression (<28 kts)" }, "geometry": { "type": "Point", "coordinates": [ 87.7, 14.3 ] } },
{ "type": "Feature", "properties": { "time": "2024-05-23T21:00:00", "lat": 14.7, "lon": 88.2, "wind_kts": 18.0, "pressure_mb": 997.0, "category": "Depression (<28 kts)" }, "geometry": { "type": "Point", "coordinates": [ 88.2, 14.7 ] } },
{ "type": "Feature", "properties": { "time": "2024-05-24T00:00:00", "lat": 15.2, "lon": 88.6, "wind_kts": 25.0, "pressure_mb": 996.0, "category": "Depression (<28 kts)" }, "geometry": { "type": "Point", "coordinates": [ 88.6, 15.2 ] } },
{ "type": "Feature", "properties": { "time": "2024-05-24T03:00:00", "lat": 15.5, "lon": 89.0, "wind_kts": 25.0, "pressure_mb": 995.0, "category": "Depression (<28 kts)" }, "geometry": { "type": "Point", "coordinates": [ 89.0, 15.5 ] } },
{ "type": "Feature", "properties": { "time": "2024-05-24T06:00:00", "lat": 15.9, "lon": 89.3, "wind_kts": 25.0, "pressure_mb": 994.0, "category": "Depression (<28 kts)" }, "geometry": { "type": "Point", "coordinates": [ 89.3, 15.9 ] } },
{ "type": "Feature", "properties": { "time": "2024-05-24T09:00:00", "lat": 16.1, "lon": 89.4, "wind_kts": 25.0, "pressure_mb": 994.0, "category": "Depression (<28 kts)" }, "geometry": { "type": "Point", "coordinates": [ 89.4, 16.1 ] } },
{ "type": "Feature", "properties": { "time": "2024-05-24T12:00:00", "lat": 16.4, "lon": 89.6, "wind_kts": 25.0, "pressure_mb": 993.0, "category": "Depression (<28 kts)" }, "geometry": { "type": "Point", "coordinates": [ 89.6, 16.4 ] } },
{ "type": "Feature", "properties": { "time": "2024-05-24T15:00:00", "lat": 16.7, "lon": 89.7, "wind_kts": 25.0, "pressure_mb": 993.0, "category": "Depression (<28 kts)" }, "geometry": { "type": "Point", "coordinates": [ 89.7, 16.7 ] } },
{ "type": "Feature", "properties": { "time": "2024-05-24T18:00:00", "lat": 17.0, "lon": 89.9, "wind_kts": 25.0, "pressure_mb": 992.0, "category": "Depression (<28 kts)" }, "geometry": { "type": "Point", "coordinates": [ 89.9, 17.0 ] } },
{ "type": "Feature", "properties": { "time": "2024-05-24T21:00:00", "lat": 17.2, "lon": 89.9, "wind_kts": 25.0, "pressure_mb": 992.0, "category": "Depression (<28 kts)" }, "geometry": { "type": "Point", "coordinates": [ 89.9, 17.2 ] } },
{ "type": "Feature", "properties": { "time": "2024-05-25T00:00:00", "lat": 17.6, "lon": 90.0, "wind_kts": 30.0, "pressure_mb": 991.0, "category": "Deep Depression (28-33 kts)" }, "geometry": { "type": "Point", "coordinates": [ 90.0, 17.6 ] } },
{ "type": "Feature", "properties": { "time": "2024-05-25T03:00:00", "lat": 17.9, "lon": 89.8, "wind_kts": 30.0, "pressure_mb": 991.0, "category": "Deep Depression (28-33 kts)" }, "geometry": { "type": "Point", "coordinates": [ 89.8, 17.9 ] } },
{ "type": "Feature", "properties": { "time": "2024-05-25T06:00:00", "lat": 18.2, "lon": 89.6, "wind_kts": 30.0, "pressure_mb": 990.0, "category": "Deep Depression (28-33 kts)" }, "geometry": { "type": "Point", "coordinates": [ 89.6, 18.2 ] } },
{ "type": "Feature", "properties": { "time": "2024-05-25T09:00:00", "lat": 18.4, "lon": 89.5, "wind_kts": 28.0, "pressure_mb": 989.0, "category": "Deep Depression (28-33 kts)" }, "geometry": { "type": "Point", "coordinates": [ 89.5, 18.4 ] } },
{ "type": "Feature", "properties": { "time": "2024-05-25T12:00:00", "lat": 18.7, "lon": 89.3, "wind_kts": 35.0, "pressure_mb": 987.0, "category": "Cyclonic Storm (34-47 kts)" }, "geometry": { "type": "Point", "coordinates": [ 89.3, 18.7 ] } },
{ "type": "Feature", "properties": { "time": "2024-05-25T15:00:00", "lat": 18.9, "lon": 89.2, "wind_kts": 35.0, "pressure_mb": 987.0, "category": "Cyclonic Storm (34-47 kts)" }, "geometry": { "type": "Point", "coordinates": [ 89.2, 18.9 ] } },
{ "type": "Feature", "properties": { "time": "2024-05-25T18:00:00", "lat": 19.2, "lon": 89.2, "wind_kts": 40.0, "pressure_mb": 986.0, "category": "Cyclonic Storm (34-47 kts)" }, "geometry": { "type": "Point", "coordinates": [ 89.2, 19.2 ] } },
{ "type": "Feature", "properties": { "time": "2024-05-25T21:00:00", "lat": 19.4, "lon": 89.2, "wind_kts": 45.0, "pressure_mb": 986.0, "category": "Cyclonic Storm (34-47 kts)" }, "geometry": { "type": "Point", "coordinates": [ 89.2, 19.4 ] } },
{ "type": "Feature", "properties": { "time": "2024-05-26T00:00:00", "lat": 19.6, "lon": 89.2, "wind_kts": 50.0, "pressure_mb": 984.0, "category": "Severe Cyclonic Storm (48-63 kts)" }, "geometry": { "type": "Point", "coordinates": [ 89.2, 19.6 ] } },
{ "type": "Feature", "properties": { "time": "2024-05-26T03:00:00", "lat": 19.9, "lon": 89.1, "wind_kts": 50.0, "pressure_mb": 984.0, "category": "Severe Cyclonic Storm (48-63 kts)" }, "geometry": { "type": "Point", "coordinates": [ 89.1, 19.9 ] } },
{ "type": "Feature", "properties": { "time": "2024-05-26T06:00:00", "lat": 20.3, "lon": 89.1, "wind_kts": 50.0, "pressure_mb": 983.0, "category": "Severe Cyclonic Storm (48-63 kts)" }, "geometry": { "type": "Point", "coordinates": [ 89.1, 20.3 ] } },
{ "type": "Feature", "properties": { "time": "2024-05-26T09:00:00", "lat": 20.6, "lon": 89.1, "wind_kts": 55.0, "pressure_mb": 981.0, "category": "Severe Cyclonic Storm (48-63 kts)" }, "geometry": { "type": "Point", "coordinates": [ 89.1, 20.6 ] } },
{ "type": "Feature", "properties": { "time": "2024-05-26T12:00:00", "lat": 21.2, "lon": 89.1, "wind_kts": 60.0, "pressure_mb": 978.0, "category": "Severe Cyclonic Storm (48-63 kts)" }, "geometry": { "type": "Point", "coordinates": [ 89.1, 21.2 ] } },
{ "type": "Feature", "properties": { "time": "2024-05-26T14:00:00", "lat": 21.5, "lon": 89.0, "wind_kts": 60.0, "pressure_mb": 977.0, "category": "Severe Cyclonic Storm (48-63 kts)" }, "geometry": { "type": "Point", "coordinates": [ 89.0, 21.5 ] } },
{ "type": "Feature", "properties": { "time": "2024-05-26T15:00:00", "lat": 21.6, "lon": 89.0, "wind_kts": 60.0, "pressure_mb": 977.0, "category": "Severe Cyclonic Storm (48-63 kts)" }, "geometry": { "type": "Point", "coordinates": [ 89.0, 21.6 ] } },
{ "type": "Feature", "properties": { "time": "2024-05-26T18:00:00", "lat": 22.0, "lon": 88.9, "wind_kts": 60.0, "pressure_mb": 978.0, "category": "Severe Cyclonic Storm (48-63 kts)" }, "geometry": { "type": "Point", "coordinates": [ 88.9, 22.0 ] } },
{ "type": "Feature", "properties": { "time": "2024-05-26T21:00:00", "lat": 22.2, "lon": 88.9, "wind_kts": 55.0, "pressure_mb": 980.0, "category": "Severe Cyclonic Storm (48-63 kts)" }, "geometry": { "type": "Point", "coordinates": [ 88.9, 22.2 ] } },
{ "type": "Feature", "properties": { "time": "2024-05-27T00:00:00", "lat": 22.6, "lon": 89.0, "wind_kts": 50.0, "pressure_mb": 980.0, "category": "Severe Cyclonic Storm (48-63 kts)" }, "geometry": { "type": "Point", "coordinates": [ 89.0, 22.6 ] } },
{ "type": "Feature", "properties": { "time": "2024-05-27T03:00:00", "lat": 22.8, "lon": 89.1, "wind_kts": 48.0, "pressure_mb": 981.0, "category": "Severe Cyclonic Storm (48-63 kts)" }, "geometry": { "type": "Point", "coordinates": [ 89.1, 22.8 ] } },
{ "type": "Feature", "properties": { "time": "2024-05-27T06:00:00", "lat": 23.1, "lon": 89.1, "wind_kts": 45.0, "pressure_mb": 981.0, "category": "Cyclonic Storm (34-47 kts)" }, "geometry": { "type": "Point", "coordinates": [ 89.1, 23.1 ] } },
{ "type": "Feature", "properties": { "time": "2024-05-27T09:00:00", "lat": 23.3, "lon": 89.3, "wind_kts": 40.0, "pressure_mb": 983.0, "category": "Cyclonic Storm (34-47 kts)" }, "geometry": { "type": "Point", "coordinates": [ 89.3, 23.3 ] } },
{ "type": "Feature", "properties": { "time": "2024-05-27T12:00:00", "lat": 23.6, "lon": 89.6, "wind_kts": 35.0, "pressure_mb": 985.0, "category": "Cyclonic Storm (34-47 kts)" }, "geometry": { "type": "Point", "coordinates": [ 89.6, 23.6 ] } },
{ "type": "Feature", "properties": { "time": "2024-05-27T15:00:00", "lat": 23.8, "lon": 90.1, "wind_kts": 33.0, "pressure_mb": 986.0, "category": "Deep Depression (28-33 kts)" }, "geometry": { "type": "Point", "coordinates": [ 90.1, 23.8 ] } },
{ "type": "Feature", "properties": { "time": "2024-05-27T18:00:00", "lat": 24.1, "lon": 90.5, "wind_kts": 30.0, "pressure_mb": 987.0, "category": "Deep Depression (28-33 kts)" }, "geometry": { "type": "Point", "coordinates": [ 90.5, 24.1 ] } },
{ "type": "Feature", "properties": { "time": "2024-05-27T21:00:00", "lat": 24.3, "lon": 90.8, "wind_kts": 25.0, "pressure_mb": 991.0, "category": "Depression (<28 kts)" }, "geometry": { "type": "Point", "coordinates": [ 90.8, 24.3 ] } },
{ "type": "Feature", "properties": { "time": "2024-05-28T00:00:00", "lat": 24.5, "lon": 91.1, "wind_kts": 20.0, "pressure_mb": 991.0, "category": "Depression (<28 kts)" }, "geometry": { "type": "Point", "coordinates": [ 91.1, 24.5 ] } },
{ "type": "Feature", "properties": { "time": "2024-05-28T03:00:00", "lat": 24.7, "lon": 91.5, "wind_kts": 20.0, "pressure_mb": 992.0, "category": "Depression (<28 kts)" }, "geometry": { "type": "Point", "coordinates": [ 91.5, 24.7 ] } },
{ "type": "Feature", "properties": { "time": "2024-05-28T06:00:00", "lat": 25.1, "lon": 91.8, "wind_kts": 20.0, "pressure_mb": 993.0, "category": "Depression (<28 kts)" }, "geometry": { "type": "Point", "coordinates": [ 91.8, 25.1 ] } }
]
}
