{
"type": "FeatureCollection",
"name": "surge_inundation",
"crs": { "type": "name", "properties": { "name": "urn:ogc:def:crs:OGC:1.3:CRS84" } },
"features": [
{ "type": "Feature", "properties": { "tier_id": "extreme", "tier_name": "Extreme Surge Inundation (>2.5m)", "threat_level": "CATASTROPHIC", "min_surge_depth_m": 2.5, "max_surge_depth_m": 3.56, "max_ground_elevation_m": 1.36, "area_sq_km": 7347.9, "fill_color": "#7c3aed" }, "geometry": { "type": "Polygon", "coordinates": [ [ [ 89.6, 21.7 ], [ 89.2, 21.65 ], [ 88.8, 21.62 ], [ 88.4, 21.58 ], [ 88.341441234754214, 21.575608092606565 ], [ 88.264477003989839, 21.877399427769983 ], [ 88.255644601728946, 21.936289301867646 ], [ 88.256038502468499, 21.958898481184882 ], [ 88.5, 22.076 ], [ 88.8, 22.148 ], [ 89.0, 22.2 ], [ 89.2, 22.17 ], [ 89.5, 22.12 ], [ 89.539677145620601, 22.106849860308596 ], [ 89.539732338911179, 22.106436941078666 ], [ 89.636661890870556, 21.70458273635882 ], [ 89.6, 21.7 ] ] ] } },
{ "type": "Feature", "properties": { "tier_id": "high", "tier_name": "High Surge Inundation (1.5 - 2.5m)", "threat_level": "SEVERE", "min_surge_depth_m": 1.5, "max_surge_depth_m": 3.56, "max_ground_elevation_m": 2.36, "area_sq_km": 8705.9, "fill_color": "#0284c7" }, "geometry": { "type": "Polygon", "coordinates": [ [ [ 89.25, 21.65 ], [ 88.75, 21.62 ], [ 88.338515303324968, 21.587081224265997 ], [ 88.264477003989839, 21.877399427769983 ], [ 88.255644601728946, 21.936289301867646 ], [ 88.258326394114434, 22.090219261488819 ], [ 88.375, 22.14 ], [ 88.75, 22.22 ], [ 89.0, 22.28 ], [ 89.25, 22.25 ], [ 89.532845271615585, 22.212287297117921 ], [ 89.528674857935854, 22.189161607097681 ], [ 89.539732338911179, 22.106436941078666 ], [ 89.637204721447972, 21.702332248808069 ], [ 89.638422374391851, 21.688842237439182 ], [ 89.25, 21.65 ] ] ] } },
{ "type": "Feature", "properties": { "tier_id": "moderate", "tier_name": "Moderate Surge Inundation (0.5 - 1.5m)", "threat_level": "MODERATE", "min_surge_depth_m": 0.5, "max_surge_depth_m": 3.56, "max_ground_elevation_m": 3.36, "area_sq_km": 9964.6, "fill_color": "#38bdf8" }, "geometry": { "type": "Polygon", "coordinates": [ [ [ 89.3, 21.65 ], [ 88.7, 21.62 ], [ 88.336303639829438, 21.595753575988628 ], [ 88.264477003989839, 21.877399427769983 ], [ 88.255644601728946, 21.936289301867646 ], [ 88.258488609373615, 22.099530119567056 ], [ 88.273217753991133, 22.208540360780486 ], [ 88.7, 22.292 ], [ 89.0, 22.36 ], [ 89.3, 22.33 ], [ 89.54908224064431, 22.302324195483965 ], [ 89.528674857935854, 22.189161607097681 ], [ 89.539732338911179, 22.106436941078666 ], [ 89.637204721447972, 21.702332248808069 ], [ 89.639375639162168, 21.678281303263514 ], [ 89.3, 21.65 ] ] ] } }
]
}
